<?xml version="1.0" encoding="UTF-8"?>
<TrainingCenterDatabase xsi:schemaLocation="http://www.garmin.com/xmlschemas/TrainingCenterDatabase/v2 http://www.garmin.com/xmlschemas/TrainingCenterDatabasev2.xsd" xmlns:ns5="http://www.garmin.com/xmlschemas/ActivityGoals/v1" xmlns:ns3="http://www.garmin.com/xmlschemas/ActivityExtension/v2" xmlns:ns2="http://www.garmin.com/xmlschemas/UserProfile/v2" xmlns="http://www.garmin.com/xmlschemas/TrainingCenterDatabase/v2" xmlns:xsi="http://www.w3.org/2001/XMLSchema-instance" xmlns:ns4="http://www.garmin.com/xmlschemas/ProfileExtension/v1">
 <Activities>
  <Activity Sport="Running">
   <Id>2026-06-10T10:08:25Z</Id>
   <Lap StartTime="2026-06-10T10:08:25Z">
    <TotalTimeSeconds>200</TotalTimeSeconds>
    <DistanceMeters>496</DistanceMeters>
    <Intensity>Active</Intensity>
    <TriggerMethod>Manual</TriggerMethod>
    <MaximumHeartRateBpm>
     <Value>148</Value>
    </MaximumHeartRateBpm>
    <AverageHeartRateBpm>
     <Value>132</Value>
    </AverageHeartRateBpm>
    <Track>
     <Trackpoint>
      <Time>2026-06-10T10:08:25Z</Time>
      <DistanceMeters>0</DistanceMeters>
     </Trackpoint>
     <Trackpoint>
      <Time>2026-06-10T10:08:26Z</Time>
      <HeartRateBpm>
       <Value>110</Value>
      </HeartRateBpm>
     </Trackpoint>
     <Trackpoint>
      <Time>2026-06-10T10:08:27Z</Time>
      <Position>
       <LatitudeDegrees>35.6996677</LatitudeDegrees>
       <LongitudeDegrees>139.7833013</LongitudeDegrees>
      </Position>
      <HeartRateBpm>
       <Value>110</Value>
      </HeartRateBpm>
     </Trackpoint>
     <Trackpoint>
      <Time>2026-06-10T10:08:28Z</Time>
      <Position>
       <LatitudeDegrees>35.6996662</LatitudeDegrees>
       <LongitudeDegrees>139.7833105</LongitudeDegrees>
      </Position>
      <DistanceMeters>0</DistanceMeters>
      <HeartRateBpm>
       <Value>110</Value>
      </HeartRateBpm>
      <Extensions>
       <Speed>0.000000</Speed>
      </Extensions>
     </Trackpoint>
     <Trackpoint>
      <Time>2026-06-10T10:08:29Z</Time>
      <Position>
       <LatitudeDegrees>35.6996647</LatitudeDegrees>
       <LongitudeDegrees>139.7833197</LongitudeDegrees>
      </Position>
      <DistanceMeters>0</DistanceMeters>
      <HeartRateBpm>
       <Value>107</Value>
      </HeartRateBpm>
      <Extensions>
       <Speed>0.000000</Speed>
      </Extensions>
     </Trackpoint>
     <Trackpoint>
      <Time>2026-06-10T10:08:30Z</Time>
      <Position>
       <LatitudeDegrees>35.6996633</LatitudeDegrees>
       <LongitudeDegrees>139.7833289</LongitudeDegrees>
      </Position>
      <DistanceMeters>3</DistanceMeters>
      <HeartRateBpm>
       <Value>106</Value>
      </HeartRateBpm>
      <Extensions>
       <Speed>2.870000</Speed>
      </Extensions>
     </Trackpoint>
     <Trackpoint>
      <Time>2026-06-10T10:08:31Z</Time>
      <Position>
       <LatitudeDegrees>35.6996623</LatitudeDegrees>
       <LongitudeDegrees>139.7833436</LongitudeDegrees>
      </Position>
      <AltitudeMeters>16</AltitudeMeters>
      <DistanceMeters>6</DistanceMeters>
      <HeartRateBpm>
       <Value>105</Value>
      </HeartRateBpm>
      <Extensions>
       <Speed>5.740000</Speed>
      </Extensions>
     </Trackpoint>
     <Trackpoint>
      <Time>2026-06-10T10:08:32Z</Time>
      <Position>
       <LatitudeDegrees>35.6996613</LatitudeDegrees>
       <LongitudeDegrees>139.7833584</LongitudeDegrees>
      </Position>
      <AltitudeMeters>16</AltitudeMeters>
      <DistanceMeters>6</DistanceMeters>
      <HeartRateBpm>
       <Value>105</Value>
      </HeartRateBpm>
      <Extensions>
       <Speed>5.720000</Speed>
      </Extensions>
     </Trackpoint>
     <Trackpoint>
      <Time>2026-06-10T10:08:33Z</Time>
      <Position>
       <LatitudeDegrees>35.6996583</LatitudeDegrees>
       <LongitudeDegrees>139.7833686</LongitudeDegrees>
      </Position>
      <AltitudeMeters>16</AltitudeMeters>
      <DistanceMeters>7</DistanceMeters>
      <HeartRateBpm>
       <Value>105</Value>
      </HeartRateBpm>
      <Extensions>
       <Speed>5.700000</Speed>
      </Extensions>
     </Trackpoint>
     <Trackpoint>
      <Time>2026-06-10T10:08:34Z</Time>
      <Position>
       <LatitudeDegrees>35.6996553</LatitudeDegrees>
       <LongitudeDegrees>139.7833788</LongitudeDegrees>
      </Position>
      <AltitudeMeters>16</AltitudeMeters>
      <DistanceMeters>10</DistanceMeters>
      <HeartRateBpm>
       <Value>110</Value>
      </HeartRateBpm>
      <Cadence>81</Cadence>
      <Extensions>
       <Speed>4.320000</Speed>
      </Extensions>
     </Trackpoint>
     <Trackpoint>
      <Time>2026-06-10T10:08:35Z</Time>
      <Position>
       <LatitudeDegrees>35.6996510</LatitudeDegrees>
       <LongitudeDegrees>139.7833979</LongitudeDegrees>
      </Position>
      <AltitudeMeters>16</AltitudeMeters>
      <DistanceMeters>12</DistanceMeters>
      <HeartRateBpm>
       <Value>113</Value>
      </HeartRateBpm>
      <Cadence>81</Cadence>
      <Extensions>
       <Speed>2.950000</Speed>
      </Extensions>
     </Trackpoint>
     <Trackpoint>
      <Time>2026-06-10T10:08:36Z</Time>
      <Position>
       <LatitudeDegrees>35.6996468</LatitudeDegrees>
       <LongitudeDegrees>139.7834171</LongitudeDegrees>
      </Position>
      <AltitudeMeters>16</AltitudeMeters>
      <DistanceMeters>14</DistanceMeters>
      <HeartRateBpm>
       <Value>114</Value>
      </HeartRateBpm>
      <Cadence>81</Cadence>
      <Extensions>
       <Speed>3.040000</Speed>
      </Extensions>
     </Trackpoint>
     <Trackpoint>
      <Time>2026-06-10T10:08:37Z</Time>
      <Position>
       <LatitudeDegrees>35.6996453</LatitudeDegrees>
       <LongitudeDegrees>139.7834375</LongitudeDegrees>
      </Position>
      <AltitudeMeters>16</AltitudeMeters>
      <DistanceMeters>16</DistanceMeters>
      <HeartRateBpm>
       <Value>115</Value>
      </HeartRateBpm>
      <Cadence>81</Cadence>
      <Extensions>
       <Speed>3.140000</Speed>
      </Extensions>
     </Trackpoint>
     <Trackpoint>
      <Time>2026-06-10T10:08:38Z</Time>
      <Position>
       <LatitudeDegrees>35.6996439</LatitudeDegrees>
       <LongitudeDegrees>139.7834580</LongitudeDegrees>
      </Position>
      <AltitudeMeters>16</AltitudeMeters>
      <DistanceMeters>18</DistanceMeters>
      <HeartRateBpm>
       <Value>115</Value>
      </HeartRateBpm>
      <Cadence>81</Cadence>
      <Extensions>
       <Speed>3.520000</Speed>
      </Extensions>
     </Trackpoint>
     <Trackpoint>
      <Time>2026-06-10T10:08:39Z</Time>
      <Position>
       <LatitudeDegrees>35.6996407</LatitudeDegrees>
       <LongitudeDegrees>139.7834847</LongitudeDegrees>
      </Position>
      <AltitudeMeters>16</AltitudeMeters>
      <DistanceMeters>21</DistanceMeters>
      <HeartRateBpm>
       <Value>116</Value>
      </HeartRateBpm>
      <Cadence>82</Cadence>
      <Extensions>
       <Speed>3.900000</Speed>
      </Extensions>
     </Trackpoint>
     <Trackpoint>
      <Time>2026-06-10T10:08:40Z</Time>
      <Position>
       <LatitudeDegrees>35.6996376</LatitudeDegrees>
       <LongitudeDegrees>139.7835114</LongitudeDegrees>
      </Position>
      <AltitudeMeters>16</AltitudeMeters>
      <DistanceMeters>24</DistanceMeters>
      <HeartRateBpm>
       <Value>116</Value>
      </HeartRateBpm>
      <Cadence>82</Cadence>
      <Extensions>
       <Speed>4.360000</Speed>
      </Extensions>
     </Trackpoint>
     <Trackpoint>
      <Time>2026-06-10T10:08:41Z</Time>
      <Position>
       <LatitudeDegrees>35.6996326</LatitudeDegrees>
       <LongitudeDegrees>139.7835457</LongitudeDegrees>
      </Position>
      <AltitudeMeters>16</AltitudeMeters>
      <DistanceMeters>28</DistanceMeters>
      <HeartRateBpm>
       <Value>117</Value>
      </HeartRateBpm>
      <Cadence>82</Cadence>
      <Extensions>
       <Speed>4.830000</Speed>
      </Extensions>
     </Trackpoint>
     <Trackpoint>
      <Time>2026-06-10T10:08:42Z</Time>
      <Position>
       <LatitudeDegrees>35.6996276</LatitudeDegrees>
       <LongitudeDegrees>139.7835801</LongitudeDegrees>
      </Position>
      <AltitudeMeters>16</AltitudeMeters>
      <DistanceMeters>32</DistanceMeters>
      <HeartRateBpm>
       <Value>117</Value>
      </HeartRateBpm>
      <Cadence>82</Cadence>
      <Extensions>
       <Speed>5.330000</Speed>
      </Extensions>
     </Trackpoint>
     <Trackpoint>
      <Time>2026-06-10T10:08:43Z</Time>
      <Position>
       <LatitudeDegrees>35.6996266</LatitudeDegrees>
       <LongitudeDegrees>139.7836217</LongitudeDegrees>
      </Position>
      <AltitudeMeters>16</AltitudeMeters>
      <DistanceMeters>37</DistanceMeters>
      <HeartRateBpm>
       <Value>118</Value>
      </HeartRateBpm>
      <Cadence>82</Cadence>
      <Extensions>
       <Speed>5.840000</Speed>
      </Extensions>
     </Trackpoint>
     <Trackpoint>
      <Time>2026-06-10T10:08:44Z</Time>
      <Position>
       <LatitudeDegrees>35.6996257</LatitudeDegrees>
       <LongitudeDegrees>139.7836633</LongitudeDegrees>
      </Position>
      <AltitudeMeters>16</AltitudeMeters>
      <DistanceMeters>40</DistanceMeters>
      <HeartRateBpm>
       <Value>118</Value>
      </HeartRateBpm>
      <Cadence>82</Cadence>
      <Extensions>
       <Speed>6.430000</Speed>
      </Extensions>
     </Trackpoint>
     <Trackpoint>
      <Time>2026-06-10T10:08:45Z</Time>
      <Position>
       <LatitudeDegrees>35.6996279</LatitudeDegrees>
       <LongitudeDegrees>139.7837019</LongitudeDegrees>
      </Position>
      <AltitudeMeters>16</AltitudeMeters>
      <DistanceMeters>43</DistanceMeters>
      <HeartRateBpm>
       <Value>118</Value>
      </HeartRateBpm>
      <Cadence>83</Cadence>
      <Extensions>
       <Speed>7.020000</Speed>
      </Extensions>
     </Trackpoint>
     <Trackpoint>
      <Time>2026-06-10T10:08:46Z</Time>
      <Position>
       <LatitudeDegrees>35.6996301</LatitudeDegrees>
       <LongitudeDegrees>139.7837405</LongitudeDegrees>
      </Position>
      <AltitudeMeters>16</AltitudeMeters>
      <DistanceMeters>44</DistanceMeters>
      <HeartRateBpm>
       <Value>119</Value>
      </HeartRateBpm>
      <Cadence>83</Cadence>
      <Extensions>
       <Speed>7.400000</Speed>
      </Extensions>
     </Trackpoint>
     <Trackpoint>
      <Time>2026-06-10T10:08:47Z</Time>
      <Position>
       <LatitudeDegrees>35.6996320</LatitudeDegrees>
       <LongitudeDegrees>139.7837552</LongitudeDegrees>
      </Position>
      <AltitudeMeters>16</AltitudeMeters>
      <DistanceMeters>44</DistanceMeters>
      <HeartRateBpm>
       <Value>119</Value>
      </HeartRateBpm>
      <Cadence>83</Cadence>
      <Extensions>
       <Speed>7.780000</Speed>
      </Extensions>
     </Trackpoint>
     <Trackpoint>
      <Time>2026-06-10T10:08:48Z</Time>
      <Position>
       <LatitudeDegrees>35.6996339</LatitudeDegrees>
       <LongitudeDegrees>139.7837700</LongitudeDegrees>
      </Position>
      <AltitudeMeters>16</AltitudeMeters>
      <DistanceMeters>44</DistanceMeters>
      <HeartRateBpm>
       <Value>119</Value>
      </HeartRateBpm>
      <Cadence>83</Cadence>
      <Extensions>
       <Speed>7.860000</Speed>
      </Extensions>
     </Trackpoint>
     <Trackpoint>
      <Time>2026-06-10T10:08:49Z</Time>
      <Position>
       <LatitudeDegrees>35.6996377</LatitudeDegrees>
       <LongitudeDegrees>139.7837797</LongitudeDegrees>
      </Position>
      <AltitudeMeters>16</AltitudeMeters>
      <DistanceMeters>44</DistanceMeters>
      <HeartRateBpm>
       <Value>119</Value>
      </HeartRateBpm>
      <Cadence>83</Cadence>
      <Extensions>
       <Speed>7.940000</Speed>
      </Extensions>
     </Trackpoint>
     <Trackpoint>
      <Time>2026-06-10T10:08:50Z</Time>
      <Position>
       <LatitudeDegrees>35.6996415</LatitudeDegrees>
       <LongitudeDegrees>139.7837894</LongitudeDegrees>
      </Position>
      <AltitudeMeters>16</AltitudeMeters>
      <DistanceMeters>47</DistanceMeters>
      <HeartRateBpm>
       <Value>119</Value>
      </HeartRateBpm>
      <Cadence>83</Cadence>
      <Extensions>
       <Speed>7.740000</Speed>
      </Extensions>
     </Trackpoint>
     <Trackpoint>
      <Time>2026-06-10T10:08:51Z</Time>
      <Position>
       <LatitudeDegrees>35.6996546</LatitudeDegrees>
       <LongitudeDegrees>139.7837837</LongitudeDegrees>
      </Position>
      <AltitudeMeters>16</AltitudeMeters>
      <DistanceMeters>50</DistanceMeters>
      <HeartRateBpm>
       <Value>120</Value>
      </HeartRateBpm>
      <Cadence>84</Cadence>
      <Extensions>
       <Speed>7.540000</Speed>
      </Extensions>
     </Trackpoint>
     <Trackpoint>
      <Time>2026-06-10T10:08:52Z</Time>
      <Position>
       <LatitudeDegrees>35.6996678</LatitudeDegrees>
       <LongitudeDegrees>139.7837780</LongitudeDegrees>
      </Position>
      <AltitudeMeters>16</AltitudeMeters>
      <DistanceMeters>52</DistanceMeters>
      <HeartRateBpm>
       <Value>120</Value>
      </HeartRateBpm>
      <Cadence>84</Cadence>
      <Extensions>
       <Speed>7.320000</Speed>
      </Extensions>
     </Trackpoint>
     <Trackpoint>
      <Time>2026-06-10T10:08:53Z</Time>
      <Position>
       <LatitudeDegrees>35.6996869</LatitudeDegrees>
       <LongitudeDegrees>139.7837671</LongitudeDegrees>
      </Position>
      <AltitudeMeters>16</AltitudeMeters>
      <DistanceMeters>55</DistanceMeters>
      <HeartRateBpm>
       <Value>120</Value>
      </HeartRateBpm>
      <Cadence>84</Cadence>
      <Extensions>
       <Speed>7.100000</Speed>
      </Extensions>
     </Trackpoint>
     <Trackpoint>
      <Time>2026-06-10T10:08:54Z</Time>
      <Position>
       <LatitudeDegrees>35.6997060</LatitudeDegrees>
       <LongitudeDegrees>139.7837562</LongitudeDegrees>
      </Position>
      <AltitudeMeters>16</AltitudeMeters>
      <DistanceMeters>57</DistanceMeters>
      <HeartRateBpm>
       <Value>120</Value>
      </HeartRateBpm>
      <Cadence>84</Cadence>
      <Extensions>
       <Speed>7.010000</Speed>
      </Extensions>
     </Trackpoint>
     <Trackpoint>
      <Time>2026-06-10T10:08:55Z</Time>
      <Position>
       <LatitudeDegrees>35.6997243</LatitudeDegrees>
       <LongitudeDegrees>139.7837490</LongitudeDegrees>
      </Position>
      <AltitudeMeters>16</AltitudeMeters>
      <DistanceMeters>59</DistanceMeters>
      <HeartRateBpm>
       <Value>121</Value>
      </HeartRateBpm>
      <Cadence>84</Cadence>
      <Extensions>
       <Speed>6.930000</Speed>
      </Extensions>
     </Trackpoint>
     <Trackpoint>
      <Time>2026-06-10T10:08:56Z</Time>
      <Position>
       <LatitudeDegrees>35.6997426</LatitudeDegrees>
       <LongitudeDegrees>139.7837419</LongitudeDegrees>
      </Position>
      <AltitudeMeters>16</AltitudeMeters>
      <DistanceMeters>60</DistanceMeters>
      <HeartRateBpm>
       <Value>121</Value>
      </HeartRateBpm>
      <Cadence>85</Cadence>
      <Extensions>
       <Speed>6.890000</Speed>
      </Extensions>
     </Trackpoint>
     <Trackpoint>
      <Time>2026-06-10T10:08:57Z</Time>
      <Position>
       <LatitudeDegrees>35.6997595</LatitudeDegrees>
       <LongitudeDegrees>139.7837436</LongitudeDegrees>
      </Position>
      <AltitudeMeters>16</AltitudeMeters>
      <DistanceMeters>62</DistanceMeters>
      <HeartRateBpm>
       <Value>121</Value>
      </HeartRateBpm>
      <Cadence>85</Cadence>
      <Extensions>
       <Speed>6.860000</Speed>
      </Extensions>
     </Trackpoint>
     <Trackpoint>
      <Time>2026-06-10T10:08:58Z</Time>
      <Position>
       <LatitudeDegrees>35.6997764</LatitudeDegrees>
       <LongitudeDegrees>139.7837454</LongitudeDegrees>
      </Position>
      <AltitudeMeters>16</AltitudeMeters>
      <DistanceMeters>64</DistanceMeters>
      <HeartRateBpm>
       <Value>121</Value>
      </HeartRateBpm>
      <Cadence>85</Cadence>
      <Extensions>
       <Speed>6.820000</Speed>
      </Extensions>
     </Trackpoint>
     <Trackpoint>
      <Time>2026-06-10T10:08:59Z</Time>
      <Position>
       <LatitudeDegrees>35.6997932</LatitudeDegrees>
       <LongitudeDegrees>139.7837535</LongitudeDegrees>
      </Position>
      <AltitudeMeters>16</AltitudeMeters>
      <DistanceMeters>66</DistanceMeters>
      <HeartRateBpm>
       <Value>121</Value>
      </HeartRateBpm>
      <Cadence>85</Cadence>
      <Extensions>
       <Speed>6.790000</Speed>
      </Extensions>
     </Trackpoint>
     <Trackpoint>
      <Time>2026-06-10T10:09:00Z</Time>
      <Position>
       <LatitudeDegrees>35.6998100</LatitudeDegrees>
       <LongitudeDegrees>139.7837617</LongitudeDegrees>
      </Position>
      <AltitudeMeters>16</AltitudeMeters>
      <DistanceMeters>68</DistanceMeters>
      <HeartRateBpm>
       <Value>122</Value>
      </HeartRateBpm>
      <Cadence>85</Cadence>
      <Extensions>
       <Speed>6.770000</Speed>
      </Extensions>
     </Trackpoint>
     <Trackpoint>
      <Time>2026-06-10T10:09:01Z</Time>
      <Position>
       <LatitudeDegrees>35.6998279</LatitudeDegrees>
       <LongitudeDegrees>139.7837712</LongitudeDegrees>
      </Position>
      <AltitudeMeters>16</AltitudeMeters>
      <DistanceMeters>71</DistanceMeters>
      <HeartRateBpm>
       <Value>122</Value>
      </HeartRateBpm>
      <Cadence>85</Cadence>
      <Extensions>
       <Speed>6.750000</Speed>
      </Extensions>
     </Trackpoint>
     <Trackpoint>
      <Time>2026-06-10T10:09:02Z</Time>
      <Position>
       <LatitudeDegrees>35.6998459</LatitudeDegrees>
       <LongitudeDegrees>139.7837807</LongitudeDegrees>
      </Position>
      <AltitudeMeters>16</AltitudeMeters>
      <DistanceMeters>72</DistanceMeters>
      <HeartRateBpm>
       <Value>122</Value>
      </HeartRateBpm>
      <Cadence>84</Cadence>
      <Extensions>
       <Speed>6.730000</Speed>
      </Extensions>
     </Trackpoint>
     <Trackpoint>
      <Time>2026-06-10T10:09:03Z</Time>
      <Position>
       <LatitudeDegrees>35.6998627</LatitudeDegrees>
       <LongitudeDegrees>139.7837870</LongitudeDegrees>
      </Position>
      <AltitudeMeters>16</AltitudeMeters>
      <DistanceMeters>74</DistanceMeters>
      <HeartRateBpm>
       <Value>122</Value>
      </HeartRateBpm>
      <Cadence>84</Cadence>
      <Extensions>
       <Speed>6.710000</Speed>
      </Extensions>
     </Trackpoint>
     <Trackpoint>
      <Time>2026-06-10T10:09:04Z</Time>
      <Position>
       <LatitudeDegrees>35.6998795</LatitudeDegrees>
       <LongitudeDegrees>139.7837933</LongitudeDegrees>
      </Position>
      <AltitudeMeters>16</AltitudeMeters>
      <DistanceMeters>76</DistanceMeters>
      <HeartRateBpm>
       <Value>123</Value>
      </HeartRateBpm>
      <Cadence>84</Cadence>
      <Extensions>
       <Speed>6.720000</Speed>
      </Extensions>
     </Trackpoint>
     <Trackpoint>
      <Time>2026-06-10T10:09:05Z</Time>
      <Position>
       <LatitudeDegrees>35.6998984</LatitudeDegrees>
       <LongitudeDegrees>139.7837949</LongitudeDegrees>
      </Position>
      <AltitudeMeters>16</AltitudeMeters>
      <DistanceMeters>79</DistanceMeters>
      <HeartRateBpm>
       <Value>123</Value>
      </HeartRateBpm>
      <Cadence>84</Cadence>
      <Extensions>
       <Speed>6.740000</Speed>
      </Extensions>
     </Trackpoint>
     <Trackpoint>
      <Time>2026-06-10T10:09:06Z</Time>
      <Position>
       <LatitudeDegrees>35.6999173</LatitudeDegrees>
       <LongitudeDegrees>139.7837966</LongitudeDegrees>
      </Position>
      <AltitudeMeters>16</AltitudeMeters>
      <DistanceMeters>82</DistanceMeters>
      <HeartRateBpm>
       <Value>123</Value>
      </HeartRateBpm>
      <Cadence>84</Cadence>
      <Extensions>
       <Speed>6.860000</Speed>
      </Extensions>
     </Trackpoint>
     <Trackpoint>
      <Time>2026-06-10T10:09:07Z</Time>
      <Position>
       <LatitudeDegrees>35.6999392</LatitudeDegrees>
       <LongitudeDegrees>139.7837954</LongitudeDegrees>
      </Position>
      <AltitudeMeters>16</AltitudeMeters>
      <DistanceMeters>84</DistanceMeters>
      <HeartRateBpm>
       <Value>123</Value>
      </HeartRateBpm>
      <Cadence>84</Cadence>
      <Extensions>
       <Speed>6.980000</Speed>
      </Extensions>
     </Trackpoint>
     <Trackpoint>
      <Time>2026-06-10T10:09:08Z</Time>
      <Position>
       <LatitudeDegrees>35.6999611</LatitudeDegrees>
       <LongitudeDegrees>139.7837942</LongitudeDegrees>
      </Position>
      <AltitudeMeters>16</AltitudeMeters>
      <DistanceMeters>86</DistanceMeters>
      <HeartRateBpm>
       <Value>123</Value>
      </HeartRateBpm>
      <Cadence>84</Cadence>
      <Extensions>
       <Speed>7.240000</Speed>
      </Extensions>
     </Trackpoint>
     <Trackpoint>
      <Time>2026-06-10T10:09:09Z</Time>
      <Position>
       <LatitudeDegrees>35.6999845</LatitudeDegrees>
       <LongitudeDegrees>139.7837945</LongitudeDegrees>
      </Position>
      <AltitudeMeters>16</AltitudeMeters>
      <DistanceMeters>89</DistanceMeters>
      <HeartRateBpm>
       <Value>124</Value>
      </HeartRateBpm>
      <Cadence>85</Cadence>
      <Extensions>
       <Speed>7.500000</Speed>
      </Extensions>
     </Trackpoint>
     <Trackpoint>
      <Time>2026-06-10T10:09:10Z</Time>
      <Position>
       <LatitudeDegrees>35.7000080</LatitudeDegrees>
       <LongitudeDegrees>139.7837949</LongitudeDegrees>
      </Position>
      <AltitudeMeters>16</AltitudeMeters>
      <DistanceMeters>92</DistanceMeters>
      <HeartRateBpm>
       <Value>124</Value>
      </HeartRateBpm>
      <Cadence>85</Cadence>
      <Extensions>
       <Speed>7.770000</Speed>
      </Extensions>
     </Trackpoint>
     <Trackpoint>
      <Time>2026-06-10T10:09:11Z</Time>
      <Position>
       <LatitudeDegrees>35.7000292</LatitudeDegrees>
       <LongitudeDegrees>139.7837979</LongitudeDegrees>
      </Position>
      <AltitudeMeters>16</AltitudeMeters>
      <DistanceMeters>94</DistanceMeters>
      <HeartRateBpm>
       <Value>124</Value>
      </HeartRateBpm>
      <Cadence>85</Cadence>
      <Extensions>
       <Speed>8.050000</Speed>
      </Extensions>
     </Trackpoint>
     <Trackpoint>
      <Time>2026-06-10T10:09:12Z</Time>
      <Position>
       <LatitudeDegrees>35.7000504</LatitudeDegrees>
       <LongitudeDegrees>139.7838010</LongitudeDegrees>
      </Position>
      <AltitudeMeters>16</AltitudeMeters>
      <DistanceMeters>95</DistanceMeters>
      <HeartRateBpm>
       <Value>124</Value>
      </HeartRateBpm>
      <Cadence>85</Cadence>
      <Extensions>
       <Speed>8.210000</Speed>
      </Extensions>
     </Trackpoint>
     <Trackpoint>
      <Time>2026-06-10T10:09:13Z</Time>
      <Position>
       <LatitudeDegrees>35.7000661</LatitudeDegrees>
       <LongitudeDegrees>139.7838025</LongitudeDegrees>
      </Position>
      <AltitudeMeters>16</AltitudeMeters>
      <DistanceMeters>96</DistanceMeters>
      <HeartRateBpm>
       <Value>124</Value>
      </HeartRateBpm>
      <Cadence>85</Cadence>
      <Extensions>
       <Speed>8.370000</Speed>
      </Extensions>
     </Trackpoint>
     <Trackpoint>
      <Time>2026-06-10T10:09:14Z</Time>
      <Position>
       <LatitudeDegrees>35.7000818</LatitudeDegrees>
       <LongitudeDegrees>139.7838041</LongitudeDegrees>
      </Position>
      <AltitudeMeters>16</AltitudeMeters>
      <DistanceMeters>98</DistanceMeters>
      <HeartRateBpm>
       <Value>124</Value>
      </HeartRateBpm>
      <Cadence>85</Cadence>
      <Extensions>
       <Speed>8.310000</Speed>
      </Extensions>
     </Trackpoint>
     <Trackpoint>
      <Time>2026-06-10T10:09:15Z</Time>
      <Position>
       <LatitudeDegrees>35.7000944</LatitudeDegrees>
       <LongitudeDegrees>139.7837996</LongitudeDegrees>
      </Position>
      <AltitudeMeters>16</AltitudeMeters>
      <DistanceMeters>99</DistanceMeters>
      <HeartRateBpm>
       <Value>124</Value>
      </HeartRateBpm>
      <Cadence>85</Cadence>
      <Extensions>
       <Speed>8.260000</Speed>
      </Extensions>
     </Trackpoint>
     <Trackpoint>
      <Time>2026-06-10T10:09:16Z</Time>
      <Position>
       <LatitudeDegrees>35.7001071</LatitudeDegrees>
       <LongitudeDegrees>139.7837952</LongitudeDegrees>
      </Position>
      <AltitudeMeters>16</AltitudeMeters>
      <DistanceMeters>102</DistanceMeters>
      <HeartRateBpm>
       <Value>124</Value>
      </HeartRateBpm>
      <Cadence>84</Cadence>
      <Extensions>
       <Speed>8.050000</Speed>
      </Extensions>
     </Trackpoint>
     <Trackpoint>
      <Time>2026-06-10T10:09:17Z</Time>
      <Position>
       <LatitudeDegrees>35.7001176</LatitudeDegrees>
       <LongitudeDegrees>139.7837807</LongitudeDegrees>
      </Position>
      <AltitudeMeters>16</AltitudeMeters>
      <DistanceMeters>104</DistanceMeters>
      <HeartRateBpm>
       <Value>125</Value>
      </HeartRateBpm>
      <Cadence>84</Cadence>
      <Extensions>
       <Speed>7.840000</Speed>
      </Extensions>
     </Trackpoint>
     <Trackpoint>
      <Time>2026-06-10T10:09:18Z</Time>
      <Position>
       <LatitudeDegrees>35.7001281</LatitudeDegrees>
       <LongitudeDegrees>139.7837662</LongitudeDegrees>
      </Position>
      <AltitudeMeters>16</AltitudeMeters>
      <DistanceMeters>106</DistanceMeters>
      <HeartRateBpm>
       <Value>125</Value>
      </HeartRateBpm>
      <Cadence>84</Cadence>
      <Extensions>
       <Speed>7.660000</Speed>
      </Extensions>
     </Trackpoint>
     <Trackpoint>
      <Time>2026-06-10T10:09:19Z</Time>
      <Position>
       <LatitudeDegrees>35.7001358</LatitudeDegrees>
       <LongitudeDegrees>139.7837436</LongitudeDegrees>
      </Position>
      <AltitudeMeters>16</AltitudeMeters>
      <DistanceMeters>109</DistanceMeters>
      <HeartRateBpm>
       <Value>125</Value>
      </HeartRateBpm>
      <Cadence>84</Cadence>
      <Extensions>
       <Speed>7.490000</Speed>
      </Extensions>
     </Trackpoint>
     <Trackpoint>
      <Time>2026-06-10T10:09:20Z</Time>
      <Position>
       <LatitudeDegrees>35.7001436</LatitudeDegrees>
       <LongitudeDegrees>139.7837211</LongitudeDegrees>
      </Position>
      <AltitudeMeters>16</AltitudeMeters>
      <DistanceMeters>112</DistanceMeters>
      <HeartRateBpm>
       <Value>125</Value>
      </HeartRateBpm>
      <Cadence>84</Cadence>
      <Extensions>
       <Speed>7.470000</Speed>
      </Extensions>
     </Trackpoint>
     <Trackpoint>
      <Time>2026-06-10T10:09:21Z</Time>
      <Position>
       <LatitudeDegrees>35.7001484</LatitudeDegrees>
       <LongitudeDegrees>139.7836938</LongitudeDegrees>
      </Position>
      <AltitudeMeters>16</AltitudeMeters>
      <DistanceMeters>114</DistanceMeters>
      <HeartRateBpm>
       <Value>126</Value>
      </HeartRateBpm>
      <Cadence>84</Cadence>
      <Extensions>
       <Speed>7.450000</Speed>
      </Extensions>
     </Trackpoint>
     <Trackpoint>
      <Time>2026-06-10T10:09:22Z</Time>
      <Position>
       <LatitudeDegrees>35.7001533</LatitudeDegrees>
       <LongitudeDegrees>139.7836666</LongitudeDegrees>
      </Position>
      <AltitudeMeters>16</AltitudeMeters>
      <DistanceMeters>116</DistanceMeters>
      <HeartRateBpm>
       <Value>126</Value>
      </HeartRateBpm>
      <Cadence>84</Cadence>
      <Extensions>
       <Speed>7.480000</Speed>
      </Extensions>
     </Trackpoint>
     <Trackpoint>
      <Time>2026-06-10T10:09:23Z</Time>
      <Position>
       <LatitudeDegrees>35.7001584</LatitudeDegrees>
       <LongitudeDegrees>139.7836367</LongitudeDegrees>
      </Position>
      <AltitudeMeters>16</AltitudeMeters>
      <DistanceMeters>119</DistanceMeters>
      <HeartRateBpm>
       <Value>126</Value>
      </HeartRateBpm>
      <Cadence>84</Cadence>
      <Extensions>
       <Speed>7.520000</Speed>
      </Extensions>
     </Trackpoint>
     <Trackpoint>
      <Time>2026-06-10T10:09:24Z</Time>
      <Position>
       <LatitudeDegrees>35.7001635</LatitudeDegrees>
       <LongitudeDegrees>139.7836069</LongitudeDegrees>
      </Position>
      <AltitudeMeters>16</AltitudeMeters>
      <DistanceMeters>122</DistanceMeters>
      <HeartRateBpm>
       <Value>126</Value>
      </HeartRateBpm>
      <Cadence>84</Cadence>
      <Extensions>
       <Speed>7.580000</Speed>
      </Extensions>
     </Trackpoint>
     <Trackpoint>
      <Time>2026-06-10T10:09:25Z</Time>
      <Position>
       <LatitudeDegrees>35.7001725</LatitudeDegrees>
       <LongitudeDegrees>139.7835781</LongitudeDegrees>
      </Position>
      <AltitudeMeters>16</AltitudeMeters>
      <DistanceMeters>125</DistanceMeters>
      <HeartRateBpm>
       <Value>126</Value>
      </HeartRateBpm>
      <Cadence>84</Cadence>
      <Extensions>
       <Speed>7.640000</Speed>
      </Extensions>
     </Trackpoint>
     <Trackpoint>
      <Time>2026-06-10T10:09:26Z</Time>
      <Position>
       <LatitudeDegrees>35.7001815</LatitudeDegrees>
       <LongitudeDegrees>139.7835494</LongitudeDegrees>
      </Position>
      <AltitudeMeters>16</AltitudeMeters>
      <DistanceMeters>127</DistanceMeters>
      <HeartRateBpm>
       <Value>126</Value>
      </HeartRateBpm>
      <Cadence>84</Cadence>
      <Extensions>
       <Speed>7.720000</Speed>
      </Extensions>
     </Trackpoint>
     <Trackpoint>
      <Time>2026-06-10T10:09:27Z</Time>
      <Position>
       <LatitudeDegrees>35.7001955</LatitudeDegrees>
       <LongitudeDegrees>139.7835304</LongitudeDegrees>
      </Position>
      <AltitudeMeters>16</AltitudeMeters>
      <DistanceMeters>129</DistanceMeters>
      <HeartRateBpm>
       <Value>126</Value>
      </HeartRateBpm>
      <Cadence>84</Cadence>
      <Extensions>
       <Speed>7.800000</Speed>
      </Extensions>
     </Trackpoint>
     <Trackpoint>
      <Time>2026-06-10T10:09:28Z</Time>
      <Position>
       <LatitudeDegrees>35.7002096</LatitudeDegrees>
       <LongitudeDegrees>139.7835115</LongitudeDegrees>
      </Position>
      <AltitudeMeters>16</AltitudeMeters>
      <DistanceMeters>132</DistanceMeters>
      <HeartRateBpm>
       <Value>127</Value>
      </HeartRateBpm>
      <Cadence>84</Cadence>
      <Extensions>
       <Speed>7.870000</Speed>
      </Extensions>
     </Trackpoint>
     <Trackpoint>
      <Time>2026-06-10T10:09:29Z</Time>
      <Position>
       <LatitudeDegrees>35.7002284</LatitudeDegrees>
       <LongitudeDegrees>139.7835067</LongitudeDegrees>
      </Position>
      <AltitudeMeters>16</AltitudeMeters>
      <DistanceMeters>134</DistanceMeters>
      <HeartRateBpm>
       <Value>127</Value>
      </HeartRateBpm>
      <Cadence>84</Cadence>
      <Extensions>
       <Speed>7.950000</Speed>
      </Extensions>
     </Trackpoint>
     <Trackpoint>
      <Time>2026-06-10T10:09:30Z</Time>
      <Position>
       <LatitudeDegrees>35.7002472</LatitudeDegrees>
       <LongitudeDegrees>139.7835020</LongitudeDegrees>
      </Position>
      <AltitudeMeters>16</AltitudeMeters>
      <DistanceMeters>136</DistanceMeters>
      <HeartRateBpm>
       <Value>127</Value>
      </HeartRateBpm>
      <Cadence>84</Cadence>
      <Extensions>
       <Speed>8.000000</Speed>
      </Extensions>
     </Trackpoint>
     <Trackpoint>
      <Time>2026-06-10T10:09:31Z</Time>
      <Position>
       <LatitudeDegrees>35.7002673</LatitudeDegrees>
       <LongitudeDegrees>139.7835089</LongitudeDegrees>
      </Position>
      <AltitudeMeters>16</AltitudeMeters>
      <DistanceMeters>139</DistanceMeters>
      <HeartRateBpm>
       <Value>127</Value>
      </HeartRateBpm>
      <Cadence>84</Cadence>
      <Extensions>
       <Speed>8.060000</Speed>
      </Extensions>
     </Trackpoint>
     <Trackpoint>
      <Time>2026-06-10T10:09:32Z</Time>
      <Position>
       <LatitudeDegrees>35.7002875</LatitudeDegrees>
       <LongitudeDegrees>139.7835158</LongitudeDegrees>
      </Position>
      <AltitudeMeters>16</AltitudeMeters>
      <DistanceMeters>142</DistanceMeters>
      <HeartRateBpm>
       <Value>127</Value>
      </HeartRateBpm>
      <Cadence>84</Cadence>
      <Extensions>
       <Speed>8.090000</Speed>
      </Extensions>
     </Trackpoint>
     <Trackpoint>
      <Time>2026-06-10T10:09:33Z</Time>
      <Position>
       <LatitudeDegrees>35.7003088</LatitudeDegrees>
       <LongitudeDegrees>139.7835251</LongitudeDegrees>
      </Position>
      <AltitudeMeters>16</AltitudeMeters>
      <DistanceMeters>144</DistanceMeters>
      <HeartRateBpm>
       <Value>128</Value>
      </HeartRateBpm>
      <Cadence>84</Cadence>
      <Extensions>
       <Speed>8.120000</Speed>
      </Extensions>
     </Trackpoint>
     <Trackpoint>
      <Time>2026-06-10T10:09:34Z</Time>
      <Position>
       <LatitudeDegrees>35.7003301</LatitudeDegrees>
       <LongitudeDegrees>139.7835344</LongitudeDegrees>
      </Position>
      <AltitudeMeters>16</AltitudeMeters>
      <DistanceMeters>146</DistanceMeters>
      <HeartRateBpm>
       <Value>128</Value>
      </HeartRateBpm>
      <Cadence>84</Cadence>
      <Extensions>
       <Speed>8.160000</Speed>
      </Extensions>
     </Trackpoint>
     <Trackpoint>
      <Time>2026-06-10T10:09:35Z</Time>
      <Position>
       <LatitudeDegrees>35.7003509</LatitudeDegrees>
       <LongitudeDegrees>139.7835425</LongitudeDegrees>
      </Position>
      <AltitudeMeters>16</AltitudeMeters>
      <DistanceMeters>148</DistanceMeters>
      <HeartRateBpm>
       <Value>129</Value>
      </HeartRateBpm>
      <Cadence>85</Cadence>
      <Extensions>
       <Speed>8.200000</Speed>
      </Extensions>
     </Trackpoint>
     <Trackpoint>
      <Time>2026-06-10T10:09:36Z</Time>
      <Position>
       <LatitudeDegrees>35.7003717</LatitudeDegrees>
       <LongitudeDegrees>139.7835507</LongitudeDegrees>
      </Position>
      <AltitudeMeters>16</AltitudeMeters>
      <DistanceMeters>150</DistanceMeters>
      <HeartRateBpm>
       <Value>129</Value>
      </HeartRateBpm>
      <Cadence>85</Cadence>
      <Extensions>
       <Speed>8.220000</Speed>
      </Extensions>
     </Trackpoint>
     <Trackpoint>
      <Time>2026-06-10T10:09:37Z</Time>
      <Position>
       <LatitudeDegrees>35.7003898</LatitudeDegrees>
       <LongitudeDegrees>139.7835589</LongitudeDegrees>
      </Position>
      <AltitudeMeters>16</AltitudeMeters>
      <DistanceMeters>152</DistanceMeters>
      <HeartRateBpm>
       <Value>129</Value>
      </HeartRateBpm>
      <Cadence>85</Cadence>
      <Extensions>
       <Speed>8.250000</Speed>
      </Extensions>
     </Trackpoint>
     <Trackpoint>
      <Time>2026-06-10T10:09:38Z</Time>
      <Position>
       <LatitudeDegrees>35.7004080</LatitudeDegrees>
       <LongitudeDegrees>139.7835671</LongitudeDegrees>
      </Position>
      <AltitudeMeters>16</AltitudeMeters>
      <DistanceMeters>154</DistanceMeters>
      <HeartRateBpm>
       <Value>130</Value>
      </HeartRateBpm>
      <Cadence>85</Cadence>
      <Extensions>
       <Speed>8.260000</Speed>
      </Extensions>
     </Trackpoint>
     <Trackpoint>
      <Time>2026-06-10T10:09:39Z</Time>
      <Position>
       <LatitudeDegrees>35.7004242</LatitudeDegrees>
       <LongitudeDegrees>139.7835780</LongitudeDegrees>
      </Position>
      <AltitudeMeters>16</AltitudeMeters>
      <DistanceMeters>156</DistanceMeters>
      <HeartRateBpm>
       <Value>130</Value>
      </HeartRateBpm>
      <Cadence>85</Cadence>
      <Extensions>
       <Speed>8.270000</Speed>
      </Extensions>
     </Trackpoint>
     <Trackpoint>
      <Time>2026-06-10T10:09:40Z</Time>
      <Position>
       <LatitudeDegrees>35.7004404</LatitudeDegrees>
       <LongitudeDegrees>139.7835890</LongitudeDegrees>
      </Position>
      <AltitudeMeters>16</AltitudeMeters>
      <DistanceMeters>158</DistanceMeters>
      <HeartRateBpm>
       <Value>130</Value>
      </HeartRateBpm>
      <Cadence>85</Cadence>
      <Extensions>
       <Speed>8.310000</Speed>
      </Extensions>
     </Trackpoint>
     <Trackpoint>
      <Time>2026-06-10T10:09:41Z</Time>
      <Position>
       <LatitudeDegrees>35.7004562</LatitudeDegrees>
       <LongitudeDegrees>139.7836029</LongitudeDegrees>
      </Position>
      <AltitudeMeters>16</AltitudeMeters>
      <DistanceMeters>161</DistanceMeters>
      <HeartRateBpm>
       <Value>130</Value>
      </HeartRateBpm>
      <Cadence>85</Cadence>
      <Extensions>
       <Speed>8.360000</Speed>
      </Extensions>
     </Trackpoint>
     <Trackpoint>
      <Time>2026-06-10T10:09:42Z</Time>
      <Position>
       <LatitudeDegrees>35.7004721</LatitudeDegrees>
       <LongitudeDegrees>139.7836169</LongitudeDegrees>
      </Position>
      <AltitudeMeters>16</AltitudeMeters>
      <DistanceMeters>162</DistanceMeters>
      <HeartRateBpm>
       <Value>130</Value>
      </HeartRateBpm>
      <Cadence>85</Cadence>
      <Extensions>
       <Speed>8.380000</Speed>
      </Extensions>
     </Trackpoint>
     <Trackpoint>
      <Time>2026-06-10T10:09:43Z</Time>
      <Position>
       <LatitudeDegrees>35.7004880</LatitudeDegrees>
       <LongitudeDegrees>139.7836289</LongitudeDegrees>
      </Position>
      <AltitudeMeters>16</AltitudeMeters>
      <DistanceMeters>164</DistanceMeters>
      <HeartRateBpm>
       <Value>130</Value>
      </HeartRateBpm>
      <Cadence>85</Cadence>
      <Extensions>
       <Speed>8.410000</Speed>
      </Extensions>
     </Trackpoint>
     <Trackpoint>
      <Time>2026-06-10T10:09:44Z</Time>
      <Position>
       <LatitudeDegrees>35.7005040</LatitudeDegrees>
       <LongitudeDegrees>139.7836409</LongitudeDegrees>
      </Position>
      <AltitudeMeters>16</AltitudeMeters>
      <DistanceMeters>166</DistanceMeters>
      <HeartRateBpm>
       <Value>130</Value>
      </HeartRateBpm>
      <Cadence>85</Cadence>
      <Extensions>
       <Speed>8.400000</Speed>
      </Extensions>
     </Trackpoint>
     <Trackpoint>
      <Time>2026-06-10T10:09:45Z</Time>
      <Position>
       <LatitudeDegrees>35.7005194</LatitudeDegrees>
       <LongitudeDegrees>139.7836497</LongitudeDegrees>
      </Position>
      <AltitudeMeters>16</AltitudeMeters>
      <DistanceMeters>168</DistanceMeters>
      <HeartRateBpm>
       <Value>130</Value>
      </HeartRateBpm>
      <Cadence>85</Cadence>
      <Extensions>
       <Speed>8.400000</Speed>
      </Extensions>
     </Trackpoint>
     <Trackpoint>
      <Time>2026-06-10T10:09:46Z</Time>
      <Position>
       <LatitudeDegrees>35.7005349</LatitudeDegrees>
       <LongitudeDegrees>139.7836585</LongitudeDegrees>
      </Position>
      <AltitudeMeters>16</AltitudeMeters>
      <DistanceMeters>170</DistanceMeters>
      <HeartRateBpm>
       <Value>130</Value>
      </HeartRateBpm>
      <Cadence>85</Cadence>
      <Extensions>
       <Speed>8.380000</Speed>
      </Extensions>
     </Trackpoint>
     <Trackpoint>
      <Time>2026-06-10T10:09:47Z</Time>
      <Position>
       <LatitudeDegrees>35.7005529</LatitudeDegrees>
       <LongitudeDegrees>139.7836630</LongitudeDegrees>
      </Position>
      <AltitudeMeters>16</AltitudeMeters>
      <DistanceMeters>172</DistanceMeters>
      <HeartRateBpm>
       <Value>130</Value>
      </HeartRateBpm>
      <Cadence>85</Cadence>
      <Extensions>
       <Speed>8.360000</Speed>
      </Extensions>
     </Trackpoint>
     <Trackpoint>
      <Time>2026-06-10T10:09:48Z</Time>
      <Position>
       <LatitudeDegrees>35.7005710</LatitudeDegrees>
       <LongitudeDegrees>139.7836676</LongitudeDegrees>
      </Position>
      <AltitudeMeters>16</AltitudeMeters>
      <DistanceMeters>175</DistanceMeters>
      <HeartRateBpm>
       <Value>130</Value>
      </HeartRateBpm>
      <Cadence>85</Cadence>
      <Extensions>
       <Speed>8.340000</Speed>
      </Extensions>
     </Trackpoint>
     <Trackpoint>
      <Time>2026-06-10T10:09:49Z</Time>
      <Position>
       <LatitudeDegrees>35.7005929</LatitudeDegrees>
       <LongitudeDegrees>139.7836735</LongitudeDegrees>
      </Position>
      <AltitudeMeters>16</AltitudeMeters>
      <DistanceMeters>178</DistanceMeters>
      <HeartRateBpm>
       <Value>130</Value>
      </HeartRateBpm>
      <Cadence>85</Cadence>
      <Extensions>
       <Speed>8.320000</Speed>
      </Extensions>
     </Trackpoint>
     <Trackpoint>
      <Time>2026-06-10T10:09:50Z</Time>
      <Position>
       <LatitudeDegrees>35.7006148</LatitudeDegrees>
       <LongitudeDegrees>139.7836795</LongitudeDegrees>
      </Position>
      <AltitudeMeters>16</AltitudeMeters>
      <DistanceMeters>181</DistanceMeters>
      <HeartRateBpm>
       <Value>131</Value>
      </HeartRateBpm>
      <Cadence>85</Cadence>
      <Extensions>
       <Speed>8.310000</Speed>
      </Extensions>
     </Trackpoint>
     <Trackpoint>
      <Time>2026-06-10T10:09:51Z</Time>
      <Position>
       <LatitudeDegrees>35.7006368</LatitudeDegrees>
       <LongitudeDegrees>139.7836952</LongitudeDegrees>
      </Position>
      <AltitudeMeters>16</AltitudeMeters>
      <DistanceMeters>184</DistanceMeters>
      <HeartRateBpm>
       <Value>130</Value>
      </HeartRateBpm>
      <Cadence>85</Cadence>
      <Extensions>
       <Speed>8.300000</Speed>
      </Extensions>
     </Trackpoint>
     <Trackpoint>
      <Time>2026-06-10T10:09:52Z</Time>
      <Position>
       <LatitudeDegrees>35.7006589</LatitudeDegrees>
       <LongitudeDegrees>139.7837109</LongitudeDegrees>
      </Position>
      <AltitudeMeters>16</AltitudeMeters>
      <DistanceMeters>186</DistanceMeters>
      <HeartRateBpm>
       <Value>130</Value>
      </HeartRateBpm>
      <Cadence>85</Cadence>
      <Extensions>
       <Speed>8.300000</Speed>
      </Extensions>
     </Trackpoint>
     <Trackpoint>
      <Time>2026-06-10T10:09:53Z</Time>
      <Position>
       <LatitudeDegrees>35.7006793</LatitudeDegrees>
       <LongitudeDegrees>139.7837282</LongitudeDegrees>
      </Position>
      <AltitudeMeters>16</AltitudeMeters>
      <DistanceMeters>189</DistanceMeters>
      <HeartRateBpm>
       <Value>130</Value>
      </HeartRateBpm>
      <Cadence>85</Cadence>
      <Extensions>
       <Speed>8.310000</Speed>
      </Extensions>
     </Trackpoint>
     <Trackpoint>
      <Time>2026-06-10T10:09:54Z</Time>
      <Position>
       <LatitudeDegrees>35.7006998</LatitudeDegrees>
       <LongitudeDegrees>139.7837455</LongitudeDegrees>
      </Position>
      <AltitudeMeters>16</AltitudeMeters>
      <DistanceMeters>192</DistanceMeters>
      <HeartRateBpm>
       <Value>130</Value>
      </HeartRateBpm>
      <Cadence>85</Cadence>
      <Extensions>
       <Speed>8.330000</Speed>
      </Extensions>
     </Trackpoint>
     <Trackpoint>
      <Time>2026-06-10T10:09:55Z</Time>
      <Position>
       <LatitudeDegrees>35.7007206</LatitudeDegrees>
       <LongitudeDegrees>139.7837584</LongitudeDegrees>
      </Position>
      <AltitudeMeters>16</AltitudeMeters>
      <DistanceMeters>194</DistanceMeters>
      <HeartRateBpm>
       <Value>130</Value>
      </HeartRateBpm>
      <Cadence>85</Cadence>
      <Extensions>
       <Speed>8.350000</Speed>
      </Extensions>
     </Trackpoint>
     <Trackpoint>
      <Time>2026-06-10T10:09:56Z</Time>
      <Position>
       <LatitudeDegrees>35.7007414</LatitudeDegrees>
       <LongitudeDegrees>139.7837713</LongitudeDegrees>
      </Position>
      <AltitudeMeters>16</AltitudeMeters>
      <DistanceMeters>197</DistanceMeters>
      <HeartRateBpm>
       <Value>130</Value>
      </HeartRateBpm>
      <Cadence>85</Cadence>
      <Extensions>
       <Speed>8.370000</Speed>
      </Extensions>
     </Trackpoint>
     <Trackpoint>
      <Time>2026-06-10T10:09:57Z</Time>
      <Position>
       <LatitudeDegrees>35.7007632</LatitudeDegrees>
       <LongitudeDegrees>139.7837795</LongitudeDegrees>
      </Position>
      <AltitudeMeters>16</AltitudeMeters>
      <DistanceMeters>200</DistanceMeters>
      <HeartRateBpm>
       <Value>130</Value>
      </HeartRateBpm>
      <Cadence>85</Cadence>
      <Extensions>
       <Speed>8.390000</Speed>
      </Extensions>
     </Trackpoint>
     <Trackpoint>
      <Time>2026-06-10T10:09:58Z</Time>
      <Position>
       <LatitudeDegrees>35.7007851</LatitudeDegrees>
       <LongitudeDegrees>139.7837878</LongitudeDegrees>
      </Position>
      <AltitudeMeters>16</AltitudeMeters>
      <DistanceMeters>202</DistanceMeters>
      <HeartRateBpm>
       <Value>130</Value>
      </HeartRateBpm>
      <Cadence>85</Cadence>
      <Extensions>
       <Speed>8.440000</Speed>
      </Extensions>
     </Trackpoint>
     <Trackpoint>
      <Time>2026-06-10T10:09:59Z</Time>
      <Position>
       <LatitudeDegrees>35.7008062</LatitudeDegrees>
       <LongitudeDegrees>139.7837925</LongitudeDegrees>
      </Position>
      <AltitudeMeters>16</AltitudeMeters>
      <DistanceMeters>204</DistanceMeters>
      <HeartRateBpm>
       <Value>130</Value>
      </HeartRateBpm>
      <Cadence>85</Cadence>
      <Extensions>
       <Speed>8.490000</Speed>
      </Extensions>
     </Trackpoint>
     <Trackpoint>
      <Time>2026-06-10T10:10:00Z</Time>
      <Position>
       <LatitudeDegrees>35.7008274</LatitudeDegrees>
       <LongitudeDegrees>139.7837972</LongitudeDegrees>
      </Position>
      <AltitudeMeters>16</AltitudeMeters>
      <DistanceMeters>206</DistanceMeters>
      <HeartRateBpm>
       <Value>130</Value>
      </HeartRateBpm>
      <Cadence>85</Cadence>
      <Extensions>
       <Speed>8.510000</Speed>
      </Extensions>
     </Trackpoint>
     <Trackpoint>
      <Time>2026-06-10T10:10:01Z</Time>
      <Position>
       <LatitudeDegrees>35.7008469</LatitudeDegrees>
       <LongitudeDegrees>139.7838010</LongitudeDegrees>
      </Position>
      <AltitudeMeters>16</AltitudeMeters>
      <DistanceMeters>208</DistanceMeters>
      <HeartRateBpm>
       <Value>130</Value>
      </HeartRateBpm>
      <Cadence>85</Cadence>
      <Extensions>
       <Speed>8.540000</Speed>
      </Extensions>
     </Trackpoint>
     <Trackpoint>
      <Time>2026-06-10T10:10:02Z</Time>
      <Position>
       <LatitudeDegrees>35.7008665</LatitudeDegrees>
       <LongitudeDegrees>139.7838049</LongitudeDegrees>
      </Position>
      <AltitudeMeters>16</AltitudeMeters>
      <DistanceMeters>210</DistanceMeters>
      <HeartRateBpm>
       <Value>130</Value>
      </HeartRateBpm>
      <Cadence>85</Cadence>
      <Extensions>
       <Speed>8.540000</Speed>
      </Extensions>
     </Trackpoint>
     <Trackpoint>
      <Time>2026-06-10T10:10:03Z</Time>
      <Position>
       <LatitudeDegrees>35.7008861</LatitudeDegrees>
       <LongitudeDegrees>139.7838096</LongitudeDegrees>
      </Position>
      <AltitudeMeters>16</AltitudeMeters>
      <DistanceMeters>213</DistanceMeters>
      <HeartRateBpm>
       <Value>131</Value>
      </HeartRateBpm>
      <Cadence>85</Cadence>
      <Extensions>
       <Speed>8.550000</Speed>
      </Extensions>
     </Trackpoint>
     <Trackpoint>
      <Time>2026-06-10T10:10:04Z</Time>
      <Position>
       <LatitudeDegrees>35.7009058</LatitudeDegrees>
       <LongitudeDegrees>139.7838144</LongitudeDegrees>
      </Position>
      <AltitudeMeters>16</AltitudeMeters>
      <DistanceMeters>215</DistanceMeters>
      <HeartRateBpm>
       <Value>131</Value>
      </HeartRateBpm>
      <Cadence>85</Cadence>
      <Extensions>
       <Speed>8.550000</Speed>
      </Extensions>
     </Trackpoint>
     <Trackpoint>
      <Time>2026-06-10T10:10:05Z</Time>
      <Position>
       <LatitudeDegrees>35.7009254</LatitudeDegrees>
       <LongitudeDegrees>139.7838196</LongitudeDegrees>
      </Position>
      <AltitudeMeters>16</AltitudeMeters>
      <DistanceMeters>217</DistanceMeters>
      <HeartRateBpm>
       <Value>131</Value>
      </HeartRateBpm>
      <Cadence>85</Cadence>
      <Extensions>
       <Speed>8.550000</Speed>
      </Extensions>
     </Trackpoint>
     <Trackpoint>
      <Time>2026-06-10T10:10:06Z</Time>
      <Position>
       <LatitudeDegrees>35.7009450</LatitudeDegrees>
       <LongitudeDegrees>139.7838248</LongitudeDegrees>
      </Position>
      <AltitudeMeters>16</AltitudeMeters>
      <DistanceMeters>220</DistanceMeters>
      <HeartRateBpm>
       <Value>132</Value>
      </HeartRateBpm>
      <Cadence>85</Cadence>
      <Extensions>
       <Speed>8.540000</Speed>
      </Extensions>
     </Trackpoint>
     <Trackpoint>
      <Time>2026-06-10T10:10:07Z</Time>
      <Position>
       <LatitudeDegrees>35.7009651</LatitudeDegrees>
       <LongitudeDegrees>139.7838298</LongitudeDegrees>
      </Position>
      <AltitudeMeters>16</AltitudeMeters>
      <DistanceMeters>222</DistanceMeters>
      <HeartRateBpm>
       <Value>132</Value>
      </HeartRateBpm>
      <Cadence>85</Cadence>
      <Extensions>
       <Speed>8.540000</Speed>
      </Extensions>
     </Trackpoint>
     <Trackpoint>
      <Time>2026-06-10T10:10:08Z</Time>
      <Position>
       <LatitudeDegrees>35.7009852</LatitudeDegrees>
       <LongitudeDegrees>139.7838348</LongitudeDegrees>
      </Position>
      <AltitudeMeters>16</AltitudeMeters>
      <DistanceMeters>224</DistanceMeters>
      <HeartRateBpm>
       <Value>132</Value>
      </HeartRateBpm>
      <Cadence>85</Cadence>
      <Extensions>
       <Speed>8.530000</Speed>
      </Extensions>
     </Trackpoint>
     <Trackpoint>
      <Time>2026-06-10T10:10:09Z</Time>
      <Position>
       <LatitudeDegrees>35.7010055</LatitudeDegrees>
       <LongitudeDegrees>139.7838391</LongitudeDegrees>
      </Position>
      <AltitudeMeters>16</AltitudeMeters>
      <DistanceMeters>226</DistanceMeters>
      <HeartRateBpm>
       <Value>133</Value>
      </HeartRateBpm>
      <Cadence>85</Cadence>
      <Extensions>
       <Speed>8.520000</Speed>
      </Extensions>
     </Trackpoint>
     <Trackpoint>
      <Time>2026-06-10T10:10:10Z</Time>
      <Position>
       <LatitudeDegrees>35.7010258</LatitudeDegrees>
       <LongitudeDegrees>139.7838434</LongitudeDegrees>
      </Position>
      <AltitudeMeters>16</AltitudeMeters>
      <DistanceMeters>229</DistanceMeters>
      <HeartRateBpm>
       <Value>133</Value>
      </HeartRateBpm>
      <Cadence>85</Cadence>
      <Extensions>
       <Speed>8.520000</Speed>
      </Extensions>
     </Trackpoint>
     <Trackpoint>
      <Time>2026-06-10T10:10:11Z</Time>
      <Position>
       <LatitudeDegrees>35.7010476</LatitudeDegrees>
       <LongitudeDegrees>139.7838469</LongitudeDegrees>
      </Position>
      <AltitudeMeters>16</AltitudeMeters>
      <DistanceMeters>232</DistanceMeters>
      <HeartRateBpm>
       <Value>133</Value>
      </HeartRateBpm>
      <Cadence>85</Cadence>
      <Extensions>
       <Speed>8.520000</Speed>
      </Extensions>
     </Trackpoint>
     <Trackpoint>
      <Time>2026-06-10T10:10:12Z</Time>
      <Position>
       <LatitudeDegrees>35.7010695</LatitudeDegrees>
       <LongitudeDegrees>139.7838504</LongitudeDegrees>
      </Position>
      <AltitudeMeters>16</AltitudeMeters>
      <DistanceMeters>234</DistanceMeters>
      <HeartRateBpm>
       <Value>133</Value>
      </HeartRateBpm>
      <Cadence>85</Cadence>
      <Extensions>
       <Speed>8.520000</Speed>
      </Extensions>
     </Trackpoint>
     <Trackpoint>
      <Time>2026-06-10T10:10:13Z</Time>
      <Position>
       <LatitudeDegrees>35.7010920</LatitudeDegrees>
       <LongitudeDegrees>139.7838543</LongitudeDegrees>
      </Position>
      <AltitudeMeters>16</AltitudeMeters>
      <DistanceMeters>237</DistanceMeters>
      <HeartRateBpm>
       <Value>133</Value>
      </HeartRateBpm>
      <Cadence>85</Cadence>
      <Extensions>
       <Speed>8.520000</Speed>
      </Extensions>
     </Trackpoint>
     <Trackpoint>
      <Time>2026-06-10T10:10:14Z</Time>
      <Position>
       <LatitudeDegrees>35.7011145</LatitudeDegrees>
       <LongitudeDegrees>139.7838582</LongitudeDegrees>
      </Position>
      <AltitudeMeters>16</AltitudeMeters>
      <DistanceMeters>239</DistanceMeters>
      <HeartRateBpm>
       <Value>133</Value>
      </HeartRateBpm>
      <Cadence>85</Cadence>
      <Extensions>
       <Speed>8.520000</Speed>
      </Extensions>
     </Trackpoint>
     <Trackpoint>
      <Time>2026-06-10T10:10:15Z</Time>
      <Position>
       <LatitudeDegrees>35.7011360</LatitudeDegrees>
       <LongitudeDegrees>139.7838633</LongitudeDegrees>
      </Position>
      <AltitudeMeters>16</AltitudeMeters>
      <DistanceMeters>241</DistanceMeters>
      <HeartRateBpm>
       <Value>133</Value>
      </HeartRateBpm>
      <Cadence>85</Cadence>
      <Extensions>
       <Speed>8.530000</Speed>
      </Extensions>
     </Trackpoint>
     <Trackpoint>
      <Time>2026-06-10T10:10:16Z</Time>
      <Position>
       <LatitudeDegrees>35.7011576</LatitudeDegrees>
       <LongitudeDegrees>139.7838684</LongitudeDegrees>
      </Position>
      <AltitudeMeters>16</AltitudeMeters>
      <DistanceMeters>244</DistanceMeters>
      <HeartRateBpm>
       <Value>134</Value>
      </HeartRateBpm>
      <Cadence>85</Cadence>
      <Extensions>
       <Speed>8.540000</Speed>
      </Extensions>
     </Trackpoint>
     <Trackpoint>
      <Time>2026-06-10T10:10:17Z</Time>
      <Position>
       <LatitudeDegrees>35.7011791</LatitudeDegrees>
       <LongitudeDegrees>139.7838725</LongitudeDegrees>
      </Position>
      <AltitudeMeters>16</AltitudeMeters>
      <DistanceMeters>246</DistanceMeters>
      <HeartRateBpm>
       <Value>134</Value>
      </HeartRateBpm>
      <Cadence>86</Cadence>
      <Extensions>
       <Speed>8.550000</Speed>
      </Extensions>
     </Trackpoint>
     <Trackpoint>
      <Time>2026-06-10T10:10:18Z</Time>
      <Position>
       <LatitudeDegrees>35.7012006</LatitudeDegrees>
       <LongitudeDegrees>139.7838767</LongitudeDegrees>
      </Position>
      <AltitudeMeters>16</AltitudeMeters>
      <DistanceMeters>249</DistanceMeters>
      <HeartRateBpm>
       <Value>134</Value>
      </HeartRateBpm>
      <Cadence>86</Cadence>
      <Extensions>
       <Speed>8.560000</Speed>
      </Extensions>
     </Trackpoint>
     <Trackpoint>
      <Time>2026-06-10T10:10:19Z</Time>
      <Position>
       <LatitudeDegrees>35.7012237</LatitudeDegrees>
       <LongitudeDegrees>139.7838820</LongitudeDegrees>
      </Position>
      <AltitudeMeters>16</AltitudeMeters>
      <DistanceMeters>252</DistanceMeters>
      <HeartRateBpm>
       <Value>135</Value>
      </HeartRateBpm>
      <Cadence>86</Cadence>
      <Extensions>
       <Speed>8.580000</Speed>
      </Extensions>
     </Trackpoint>
     <Trackpoint>
      <Time>2026-06-10T10:10:20Z</Time>
      <Position>
       <LatitudeDegrees>35.7012468</LatitudeDegrees>
       <LongitudeDegrees>139.7838874</LongitudeDegrees>
      </Position>
      <AltitudeMeters>16</AltitudeMeters>
      <DistanceMeters>254</DistanceMeters>
      <HeartRateBpm>
       <Value>135</Value>
      </HeartRateBpm>
      <Cadence>86</Cadence>
      <Extensions>
       <Speed>8.590000</Speed>
      </Extensions>
     </Trackpoint>
     <Trackpoint>
      <Time>2026-06-10T10:10:21Z</Time>
      <Position>
       <LatitudeDegrees>35.7012702</LatitudeDegrees>
       <LongitudeDegrees>139.7838909</LongitudeDegrees>
      </Position>
      <AltitudeMeters>16</AltitudeMeters>
      <DistanceMeters>257</DistanceMeters>
      <HeartRateBpm>
       <Value>135</Value>
      </HeartRateBpm>
      <Cadence>86</Cadence>
      <Extensions>
       <Speed>8.600000</Speed>
      </Extensions>
     </Trackpoint>
     <Trackpoint>
      <Time>2026-06-10T10:10:22Z</Time>
      <Position>
       <LatitudeDegrees>35.7012937</LatitudeDegrees>
       <LongitudeDegrees>139.7838945</LongitudeDegrees>
      </Position>
      <AltitudeMeters>16</AltitudeMeters>
      <DistanceMeters>260</DistanceMeters>
      <HeartRateBpm>
       <Value>135</Value>
      </HeartRateBpm>
      <Cadence>86</Cadence>
      <Extensions>
       <Speed>8.610000</Speed>
      </Extensions>
     </Trackpoint>
     <Trackpoint>
      <Time>2026-06-10T10:10:23Z</Time>
      <Position>
       <LatitudeDegrees>35.7013182</LatitudeDegrees>
       <LongitudeDegrees>139.7838986</LongitudeDegrees>
      </Position>
      <AltitudeMeters>16</AltitudeMeters>
      <DistanceMeters>262</DistanceMeters>
      <HeartRateBpm>
       <Value>136</Value>
      </HeartRateBpm>
      <Cadence>86</Cadence>
      <Extensions>
       <Speed>8.620000</Speed>
      </Extensions>
     </Trackpoint>
     <Trackpoint>
      <Time>2026-06-10T10:10:24Z</Time>
      <Position>
       <LatitudeDegrees>35.7013427</LatitudeDegrees>
       <LongitudeDegrees>139.7839028</LongitudeDegrees>
      </Position>
      <AltitudeMeters>16</AltitudeMeters>
      <DistanceMeters>265</DistanceMeters>
      <HeartRateBpm>
       <Value>136</Value>
      </HeartRateBpm>
      <Cadence>86</Cadence>
      <Extensions>
       <Speed>8.640000</Speed>
      </Extensions>
     </Trackpoint>
     <Trackpoint>
      <Time>2026-06-10T10:10:25Z</Time>
      <Position>
       <LatitudeDegrees>35.7013674</LatitudeDegrees>
       <LongitudeDegrees>139.7839081</LongitudeDegrees>
      </Position>
      <AltitudeMeters>16</AltitudeMeters>
      <DistanceMeters>268</DistanceMeters>
      <HeartRateBpm>
       <Value>136</Value>
      </HeartRateBpm>
      <Cadence>86</Cadence>
      <Extensions>
       <Speed>8.670000</Speed>
      </Extensions>
     </Trackpoint>
     <Trackpoint>
      <Time>2026-06-10T10:10:26Z</Time>
      <Position>
       <LatitudeDegrees>35.7013921</LatitudeDegrees>
       <LongitudeDegrees>139.7839135</LongitudeDegrees>
      </Position>
      <AltitudeMeters>16</AltitudeMeters>
      <DistanceMeters>270</DistanceMeters>
      <HeartRateBpm>
       <Value>136</Value>
      </HeartRateBpm>
      <Cadence>86</Cadence>
      <Extensions>
       <Speed>8.700000</Speed>
      </Extensions>
     </Trackpoint>
     <Trackpoint>
      <Time>2026-06-10T10:10:27Z</Time>
      <Position>
       <LatitudeDegrees>35.7014158</LatitudeDegrees>
       <LongitudeDegrees>139.7839191</LongitudeDegrees>
      </Position>
      <AltitudeMeters>16</AltitudeMeters>
      <DistanceMeters>273</DistanceMeters>
      <HeartRateBpm>
       <Value>136</Value>
      </HeartRateBpm>
      <Cadence>86</Cadence>
      <Extensions>
       <Speed>8.740000</Speed>
      </Extensions>
     </Trackpoint>
     <Trackpoint>
      <Time>2026-06-10T10:10:28Z</Time>
      <Position>
       <LatitudeDegrees>35.7014395</LatitudeDegrees>
       <LongitudeDegrees>139.7839248</LongitudeDegrees>
      </Position>
      <AltitudeMeters>16</AltitudeMeters>
      <DistanceMeters>276</DistanceMeters>
      <HeartRateBpm>
       <Value>137</Value>
      </HeartRateBpm>
      <Cadence>86</Cadence>
      <Extensions>
       <Speed>8.770000</Speed>
      </Extensions>
     </Trackpoint>
     <Trackpoint>
      <Time>2026-06-10T10:10:29Z</Time>
      <Position>
       <LatitudeDegrees>35.7014627</LatitudeDegrees>
       <LongitudeDegrees>139.7839300</LongitudeDegrees>
      </Position>
      <AltitudeMeters>16</AltitudeMeters>
      <DistanceMeters>279</DistanceMeters>
      <HeartRateBpm>
       <Value>137</Value>
      </HeartRateBpm>
      <Cadence>86</Cadence>
      <Extensions>
       <Speed>8.810000</Speed>
      </Extensions>
     </Trackpoint>
     <Trackpoint>
      <Time>2026-06-10T10:10:30Z</Time>
      <Position>
       <LatitudeDegrees>35.7014859</LatitudeDegrees>
       <LongitudeDegrees>139.7839352</LongitudeDegrees>
      </Position>
      <AltitudeMeters>16</AltitudeMeters>
      <DistanceMeters>282</DistanceMeters>
      <HeartRateBpm>
       <Value>137</Value>
      </HeartRateBpm>
      <Cadence>86</Cadence>
      <Extensions>
       <Speed>8.840000</Speed>
      </Extensions>
     </Trackpoint>
     <Trackpoint>
      <Time>2026-06-10T10:10:31Z</Time>
      <Position>
       <LatitudeDegrees>35.7015095</LatitudeDegrees>
       <LongitudeDegrees>139.7839397</LongitudeDegrees>
      </Position>
      <AltitudeMeters>16</AltitudeMeters>
      <DistanceMeters>284</DistanceMeters>
      <HeartRateBpm>
       <Value>137</Value>
      </HeartRateBpm>
      <Cadence>86</Cadence>
      <Extensions>
       <Speed>8.870000</Speed>
      </Extensions>
     </Trackpoint>
     <Trackpoint>
      <Time>2026-06-10T10:10:32Z</Time>
      <Position>
       <LatitudeDegrees>35.7015332</LatitudeDegrees>
       <LongitudeDegrees>139.7839442</LongitudeDegrees>
      </Position>
      <AltitudeMeters>16</AltitudeMeters>
      <DistanceMeters>286</DistanceMeters>
      <HeartRateBpm>
       <Value>138</Value>
      </HeartRateBpm>
      <Cadence>86</Cadence>
      <Extensions>
       <Speed>8.900000</Speed>
      </Extensions>
     </Trackpoint>
     <Trackpoint>
      <Time>2026-06-10T10:10:33Z</Time>
      <Position>
       <LatitudeDegrees>35.7015567</LatitudeDegrees>
       <LongitudeDegrees>139.7839484</LongitudeDegrees>
      </Position>
      <AltitudeMeters>16</AltitudeMeters>
      <DistanceMeters>289</DistanceMeters>
      <HeartRateBpm>
       <Value>138</Value>
      </HeartRateBpm>
      <Cadence>86</Cadence>
      <Extensions>
       <Speed>8.930000</Speed>
      </Extensions>
     </Trackpoint>
     <Trackpoint>
      <Time>2026-06-10T10:10:34Z</Time>
      <Position>
       <LatitudeDegrees>35.7015803</LatitudeDegrees>
       <LongitudeDegrees>139.7839526</LongitudeDegrees>
      </Position>
      <AltitudeMeters>16</AltitudeMeters>
      <DistanceMeters>292</DistanceMeters>
      <HeartRateBpm>
       <Value>138</Value>
      </HeartRateBpm>
      <Cadence>86</Cadence>
      <Extensions>
       <Speed>8.960000</Speed>
      </Extensions>
     </Trackpoint>
     <Trackpoint>
      <Time>2026-06-10T10:10:35Z</Time>
      <Position>
       <LatitudeDegrees>35.7016064</LatitudeDegrees>
       <LongitudeDegrees>139.7839564</LongitudeDegrees>
      </Position>
      <AltitudeMeters>16</AltitudeMeters>
      <DistanceMeters>296</DistanceMeters>
      <HeartRateBpm>
       <Value>139</Value>
      </HeartRateBpm>
      <Cadence>86</Cadence>
      <Extensions>
       <Speed>8.990000</Speed>
      </Extensions>
     </Trackpoint>
     <Trackpoint>
      <Time>2026-06-10T10:10:36Z</Time>
      <Position>
       <LatitudeDegrees>35.7016325</LatitudeDegrees>
       <LongitudeDegrees>139.7839602</LongitudeDegrees>
      </Position>
      <AltitudeMeters>16</AltitudeMeters>
      <DistanceMeters>298</DistanceMeters>
      <HeartRateBpm>
       <Value>139</Value>
      </HeartRateBpm>
      <Cadence>86</Cadence>
      <Extensions>
       <Speed>9.050000</Speed>
      </Extensions>
     </Trackpoint>
     <Trackpoint>
      <Time>2026-06-10T10:10:37Z</Time>
      <Position>
       <LatitudeDegrees>35.7016592</LatitudeDegrees>
       <LongitudeDegrees>139.7839636</LongitudeDegrees>
      </Position>
      <AltitudeMeters>16</AltitudeMeters>
      <DistanceMeters>301</DistanceMeters>
      <HeartRateBpm>
       <Value>139</Value>
      </HeartRateBpm>
      <Cadence>87</Cadence>
      <Extensions>
       <Speed>9.110000</Speed>
      </Extensions>
     </Trackpoint>
     <Trackpoint>
      <Time>2026-06-10T10:10:38Z</Time>
      <Position>
       <LatitudeDegrees>35.7016860</LatitudeDegrees>
       <LongitudeDegrees>139.7839670</LongitudeDegrees>
      </Position>
      <AltitudeMeters>16</AltitudeMeters>
      <DistanceMeters>304</DistanceMeters>
      <HeartRateBpm>
       <Value>139</Value>
      </HeartRateBpm>
      <Cadence>87</Cadence>
      <Extensions>
       <Speed>9.170000</Speed>
      </Extensions>
     </Trackpoint>
     <Trackpoint>
      <Time>2026-06-10T10:10:39Z</Time>
      <Position>
       <LatitudeDegrees>35.7017132</LatitudeDegrees>
       <LongitudeDegrees>139.7839758</LongitudeDegrees>
      </Position>
      <AltitudeMeters>16</AltitudeMeters>
      <DistanceMeters>307</DistanceMeters>
      <HeartRateBpm>
       <Value>139</Value>
      </HeartRateBpm>
      <Cadence>87</Cadence>
      <Extensions>
       <Speed>9.240000</Speed>
      </Extensions>
     </Trackpoint>
     <Trackpoint>
      <Time>2026-06-10T10:10:40Z</Time>
      <Position>
       <LatitudeDegrees>35.7017404</LatitudeDegrees>
       <LongitudeDegrees>139.7839847</LongitudeDegrees>
      </Position>
      <AltitudeMeters>16</AltitudeMeters>
      <DistanceMeters>312</DistanceMeters>
      <HeartRateBpm>
       <Value>139</Value>
      </HeartRateBpm>
      <Cadence>87</Cadence>
      <Extensions>
       <Speed>9.300000</Speed>
      </Extensions>
     </Trackpoint>
     <Trackpoint>
      <Time>2026-06-10T10:10:41Z</Time>
      <Position>
       <LatitudeDegrees>35.7017704</LatitudeDegrees>
       <LongitudeDegrees>139.7840008</LongitudeDegrees>
      </Position>
      <AltitudeMeters>16</AltitudeMeters>
      <DistanceMeters>316</DistanceMeters>
      <HeartRateBpm>
       <Value>139</Value>
      </HeartRateBpm>
      <Cadence>87</Cadence>
      <Extensions>
       <Speed>9.370000</Speed>
      </Extensions>
     </Trackpoint>
     <Trackpoint>
      <Time>2026-06-10T10:10:42Z</Time>
      <Position>
       <LatitudeDegrees>35.7018004</LatitudeDegrees>
       <LongitudeDegrees>139.7840169</LongitudeDegrees>
      </Position>
      <AltitudeMeters>16</AltitudeMeters>
      <DistanceMeters>320</DistanceMeters>
      <HeartRateBpm>
       <Value>139</Value>
      </HeartRateBpm>
      <Cadence>87</Cadence>
      <Extensions>
       <Speed>9.450000</Speed>
      </Extensions>
     </Trackpoint>
     <Trackpoint>
      <Time>2026-06-10T10:10:43Z</Time>
      <Position>
       <LatitudeDegrees>35.7018311</LatitudeDegrees>
       <LongitudeDegrees>139.7840337</LongitudeDegrees>
      </Position>
      <AltitudeMeters>16</AltitudeMeters>
      <DistanceMeters>323</DistanceMeters>
      <HeartRateBpm>
       <Value>138</Value>
      </HeartRateBpm>
      <Cadence>87</Cadence>
      <Extensions>
       <Speed>9.540000</Speed>
      </Extensions>
     </Trackpoint>
     <Trackpoint>
      <Time>2026-06-10T10:10:44Z</Time>
      <Position>
       <LatitudeDegrees>35.7018618</LatitudeDegrees>
       <LongitudeDegrees>139.7840506</LongitudeDegrees>
      </Position>
      <AltitudeMeters>16</AltitudeMeters>
      <DistanceMeters>326</DistanceMeters>
      <HeartRateBpm>
       <Value>138</Value>
      </HeartRateBpm>
      <Cadence>87</Cadence>
      <Extensions>
       <Speed>9.660000</Speed>
      </Extensions>
     </Trackpoint>
     <Trackpoint>
      <Time>2026-06-10T10:10:45Z</Time>
      <Position>
       <LatitudeDegrees>35.7018902</LatitudeDegrees>
       <LongitudeDegrees>139.7840637</LongitudeDegrees>
      </Position>
      <AltitudeMeters>16</AltitudeMeters>
      <DistanceMeters>329</DistanceMeters>
      <HeartRateBpm>
       <Value>138</Value>
      </HeartRateBpm>
      <Cadence>87</Cadence>
      <Extensions>
       <Speed>9.780000</Speed>
      </Extensions>
     </Trackpoint>
     <Trackpoint>
      <Time>2026-06-10T10:10:46Z</Time>
      <Position>
       <LatitudeDegrees>35.7019187</LatitudeDegrees>
       <LongitudeDegrees>139.7840769</LongitudeDegrees>
      </Position>
      <AltitudeMeters>16</AltitudeMeters>
      <DistanceMeters>332</DistanceMeters>
      <HeartRateBpm>
       <Value>138</Value>
      </HeartRateBpm>
      <Cadence>87</Cadence>
      <Extensions>
       <Speed>10.010000</Speed>
      </Extensions>
     </Trackpoint>
     <Trackpoint>
      <Time>2026-06-10T10:10:47Z</Time>
      <Position>
       <LatitudeDegrees>35.7019445</LatitudeDegrees>
       <LongitudeDegrees>139.7840815</LongitudeDegrees>
      </Position>
      <AltitudeMeters>16</AltitudeMeters>
      <DistanceMeters>334</DistanceMeters>
      <HeartRateBpm>
       <Value>138</Value>
      </HeartRateBpm>
      <Cadence>87</Cadence>
      <Extensions>
       <Speed>10.240000</Speed>
      </Extensions>
     </Trackpoint>
     <Trackpoint>
      <Time>2026-06-10T10:10:48Z</Time>
      <Position>
       <LatitudeDegrees>35.7019703</LatitudeDegrees>
       <LongitudeDegrees>139.7840862</LongitudeDegrees>
      </Position>
      <AltitudeMeters>16</AltitudeMeters>
      <DistanceMeters>338</DistanceMeters>
      <HeartRateBpm>
       <Value>138</Value>
      </HeartRateBpm>
      <Cadence>87</Cadence>
      <Extensions>
       <Speed>10.590000</Speed>
      </Extensions>
     </Trackpoint>
     <Trackpoint>
      <Time>2026-06-10T10:10:49Z</Time>
      <Position>
       <LatitudeDegrees>35.7019952</LatitudeDegrees>
       <LongitudeDegrees>139.7840839</LongitudeDegrees>
      </Position>
      <AltitudeMeters>16</AltitudeMeters>
      <DistanceMeters>341</DistanceMeters>
      <HeartRateBpm>
       <Value>138</Value>
      </HeartRateBpm>
      <Cadence>87</Cadence>
      <Extensions>
       <Speed>10.940000</Speed>
      </Extensions>
     </Trackpoint>
     <Trackpoint>
      <Time>2026-06-10T10:10:50Z</Time>
      <Position>
       <LatitudeDegrees>35.7020202</LatitudeDegrees>
       <LongitudeDegrees>139.7840816</LongitudeDegrees>
      </Position>
      <AltitudeMeters>16</AltitudeMeters>
      <DistanceMeters>344</DistanceMeters>
      <HeartRateBpm>
       <Value>138</Value>
      </HeartRateBpm>
      <Cadence>86</Cadence>
      <Extensions>
       <Speed>10.960000</Speed>
      </Extensions>
     </Trackpoint>
     <Trackpoint>
      <Time>2026-06-10T10:10:51Z</Time>
      <Position>
       <LatitudeDegrees>35.7020442</LatitudeDegrees>
       <LongitudeDegrees>139.7840782</LongitudeDegrees>
      </Position>
      <AltitudeMeters>16</AltitudeMeters>
      <DistanceMeters>346</DistanceMeters>
      <HeartRateBpm>
       <Value>138</Value>
      </HeartRateBpm>
      <Cadence>86</Cadence>
      <Extensions>
       <Speed>10.990000</Speed>
      </Extensions>
     </Trackpoint>
     <Trackpoint>
      <Time>2026-06-10T10:10:52Z</Time>
      <Position>
       <LatitudeDegrees>35.7020682</LatitudeDegrees>
       <LongitudeDegrees>139.7840748</LongitudeDegrees>
      </Position>
      <AltitudeMeters>16</AltitudeMeters>
      <DistanceMeters>348</DistanceMeters>
      <HeartRateBpm>
       <Value>139</Value>
      </HeartRateBpm>
      <Cadence>85</Cadence>
      <Extensions>
       <Speed>10.920000</Speed>
      </Extensions>
     </Trackpoint>
     <Trackpoint>
      <Time>2026-06-10T10:10:53Z</Time>
      <Position>
       <LatitudeDegrees>35.7020914</LatitudeDegrees>
       <LongitudeDegrees>139.7840743</LongitudeDegrees>
      </Position>
      <AltitudeMeters>16</AltitudeMeters>
      <DistanceMeters>351</DistanceMeters>
      <HeartRateBpm>
       <Value>139</Value>
      </HeartRateBpm>
      <Cadence>85</Cadence>
      <Extensions>
       <Speed>10.860000</Speed>
      </Extensions>
     </Trackpoint>
     <Trackpoint>
      <Time>2026-06-10T10:10:54Z</Time>
      <Position>
       <LatitudeDegrees>35.7021147</LatitudeDegrees>
       <LongitudeDegrees>139.7840738</LongitudeDegrees>
      </Position>
      <AltitudeMeters>16</AltitudeMeters>
      <DistanceMeters>354</DistanceMeters>
      <HeartRateBpm>
       <Value>140</Value>
      </HeartRateBpm>
      <Cadence>85</Cadence>
      <Extensions>
       <Speed>10.830000</Speed>
      </Extensions>
     </Trackpoint>
     <Trackpoint>
      <Time>2026-06-10T10:10:55Z</Time>
      <Position>
       <LatitudeDegrees>35.7021391</LatitudeDegrees>
       <LongitudeDegrees>139.7840762</LongitudeDegrees>
      </Position>
      <AltitudeMeters>16</AltitudeMeters>
      <DistanceMeters>356</DistanceMeters>
      <HeartRateBpm>
       <Value>140</Value>
      </HeartRateBpm>
      <Cadence>85</Cadence>
      <Extensions>
       <Speed>10.800000</Speed>
      </Extensions>
     </Trackpoint>
     <Trackpoint>
      <Time>2026-06-10T10:10:56Z</Time>
      <Position>
       <LatitudeDegrees>35.7021635</LatitudeDegrees>
       <LongitudeDegrees>139.7840787</LongitudeDegrees>
      </Position>
      <AltitudeMeters>16</AltitudeMeters>
      <DistanceMeters>360</DistanceMeters>
      <HeartRateBpm>
       <Value>140</Value>
      </HeartRateBpm>
      <Cadence>85</Cadence>
      <Extensions>
       <Speed>10.760000</Speed>
      </Extensions>
     </Trackpoint>
     <Trackpoint>
      <Time>2026-06-10T10:10:57Z</Time>
      <Position>
       <LatitudeDegrees>35.7021890</LatitudeDegrees>
       <LongitudeDegrees>139.7840833</LongitudeDegrees>
      </Position>
      <AltitudeMeters>16</AltitudeMeters>
      <DistanceMeters>363</DistanceMeters>
      <HeartRateBpm>
       <Value>141</Value>
      </HeartRateBpm>
      <Cadence>85</Cadence>
      <Extensions>
       <Speed>10.720000</Speed>
      </Extensions>
     </Trackpoint>
     <Trackpoint>
      <Time>2026-06-10T10:10:58Z</Time>
      <Position>
       <LatitudeDegrees>35.7022146</LatitudeDegrees>
       <LongitudeDegrees>139.7840880</LongitudeDegrees>
      </Position>
      <AltitudeMeters>16</AltitudeMeters>
      <DistanceMeters>366</DistanceMeters>
      <HeartRateBpm>
       <Value>141</Value>
      </HeartRateBpm>
      <Cadence>85</Cadence>
      <Extensions>
       <Speed>10.700000</Speed>
      </Extensions>
     </Trackpoint>
     <Trackpoint>
      <Time>2026-06-10T10:10:59Z</Time>
      <Position>
       <LatitudeDegrees>35.7022380</LatitudeDegrees>
       <LongitudeDegrees>139.7840952</LongitudeDegrees>
      </Position>
      <AltitudeMeters>16</AltitudeMeters>
      <DistanceMeters>368</DistanceMeters>
      <HeartRateBpm>
       <Value>142</Value>
      </HeartRateBpm>
      <Cadence>85</Cadence>
      <Extensions>
       <Speed>10.690000</Speed>
      </Extensions>
     </Trackpoint>
     <Trackpoint>
      <Time>2026-06-10T10:11:00Z</Time>
      <Position>
       <LatitudeDegrees>35.7022615</LatitudeDegrees>
       <LongitudeDegrees>139.7841024</LongitudeDegrees>
      </Position>
      <AltitudeMeters>16</AltitudeMeters>
      <DistanceMeters>370</DistanceMeters>
      <HeartRateBpm>
       <Value>142</Value>
      </HeartRateBpm>
      <Cadence>85</Cadence>
      <Extensions>
       <Speed>10.680000</Speed>
      </Extensions>
     </Trackpoint>
     <Trackpoint>
      <Time>2026-06-10T10:11:01Z</Time>
      <Position>
       <LatitudeDegrees>35.7022816</LatitudeDegrees>
       <LongitudeDegrees>139.7841086</LongitudeDegrees>
      </Position>
      <AltitudeMeters>16</AltitudeMeters>
      <DistanceMeters>372</DistanceMeters>
      <HeartRateBpm>
       <Value>143</Value>
      </HeartRateBpm>
      <Cadence>85</Cadence>
      <Extensions>
       <Speed>10.680000</Speed>
      </Extensions>
     </Trackpoint>
     <Trackpoint>
      <Time>2026-06-10T10:11:02Z</Time>
      <Position>
       <LatitudeDegrees>35.7023017</LatitudeDegrees>
       <LongitudeDegrees>139.7841149</LongitudeDegrees>
      </Position>
      <AltitudeMeters>16</AltitudeMeters>
      <DistanceMeters>374</DistanceMeters>
      <HeartRateBpm>
       <Value>143</Value>
      </HeartRateBpm>
      <Cadence>85</Cadence>
      <Extensions>
       <Speed>10.650000</Speed>
      </Extensions>
     </Trackpoint>
     <Trackpoint>
      <Time>2026-06-10T10:11:03Z</Time>
      <Position>
       <LatitudeDegrees>35.7023202</LatitudeDegrees>
       <LongitudeDegrees>139.7841163</LongitudeDegrees>
      </Position>
      <AltitudeMeters>16</AltitudeMeters>
      <DistanceMeters>376</DistanceMeters>
      <HeartRateBpm>
       <Value>144</Value>
      </HeartRateBpm>
      <Cadence>85</Cadence>
      <Extensions>
       <Speed>10.630000</Speed>
      </Extensions>
     </Trackpoint>
     <Trackpoint>
      <Time>2026-06-10T10:11:04Z</Time>
      <Position>
       <LatitudeDegrees>35.7023388</LatitudeDegrees>
       <LongitudeDegrees>139.7841178</LongitudeDegrees>
      </Position>
      <AltitudeMeters>16</AltitudeMeters>
      <DistanceMeters>378</DistanceMeters>
      <HeartRateBpm>
       <Value>144</Value>
      </HeartRateBpm>
      <Cadence>85</Cadence>
      <Extensions>
       <Speed>10.580000</Speed>
      </Extensions>
     </Trackpoint>
     <Trackpoint>
      <Time>2026-06-10T10:11:05Z</Time>
      <Position>
       <LatitudeDegrees>35.7023585</LatitudeDegrees>
       <LongitudeDegrees>139.7841172</LongitudeDegrees>
      </Position>
      <AltitudeMeters>16</AltitudeMeters>
      <DistanceMeters>380</DistanceMeters>
      <HeartRateBpm>
       <Value>144</Value>
      </HeartRateBpm>
      <Cadence>85</Cadence>
      <Extensions>
       <Speed>10.530000</Speed>
      </Extensions>
     </Trackpoint>
     <Trackpoint>
      <Time>2026-06-10T10:11:06Z</Time>
      <Position>
       <LatitudeDegrees>35.7023783</LatitudeDegrees>
       <LongitudeDegrees>139.7841166</LongitudeDegrees>
      </Position>
      <AltitudeMeters>16</AltitudeMeters>
      <DistanceMeters>383</DistanceMeters>
      <HeartRateBpm>
       <Value>144</Value>
      </HeartRateBpm>
      <Cadence>85</Cadence>
      <Extensions>
       <Speed>10.460000</Speed>
      </Extensions>
     </Trackpoint>
     <Trackpoint>
      <Time>2026-06-10T10:11:07Z</Time>
      <Position>
       <LatitudeDegrees>35.7024024</LatitudeDegrees>
       <LongitudeDegrees>139.7841164</LongitudeDegrees>
      </Position>
      <AltitudeMeters>16</AltitudeMeters>
      <DistanceMeters>386</DistanceMeters>
      <HeartRateBpm>
       <Value>144</Value>
      </HeartRateBpm>
      <Cadence>85</Cadence>
      <Extensions>
       <Speed>10.400000</Speed>
      </Extensions>
     </Trackpoint>
     <Trackpoint>
      <Time>2026-06-10T10:11:08Z</Time>
      <Position>
       <LatitudeDegrees>35.7024266</LatitudeDegrees>
       <LongitudeDegrees>139.7841162</LongitudeDegrees>
      </Position>
      <AltitudeMeters>16</AltitudeMeters>
      <DistanceMeters>389</DistanceMeters>
      <HeartRateBpm>
       <Value>144</Value>
      </HeartRateBpm>
      <Cadence>85</Cadence>
      <Extensions>
       <Speed>10.360000</Speed>
      </Extensions>
     </Trackpoint>
     <Trackpoint>
      <Time>2026-06-10T10:11:09Z</Time>
      <Position>
       <LatitudeDegrees>35.7024522</LatitudeDegrees>
       <LongitudeDegrees>139.7841215</LongitudeDegrees>
      </Position>
      <AltitudeMeters>16</AltitudeMeters>
      <DistanceMeters>392</DistanceMeters>
      <HeartRateBpm>
       <Value>145</Value>
      </HeartRateBpm>
      <Cadence>86</Cadence>
      <Extensions>
       <Speed>10.320000</Speed>
      </Extensions>
     </Trackpoint>
     <Trackpoint>
      <Time>2026-06-10T10:11:10Z</Time>
      <Position>
       <LatitudeDegrees>35.7024778</LatitudeDegrees>
       <LongitudeDegrees>139.7841268</LongitudeDegrees>
      </Position>
      <AltitudeMeters>16</AltitudeMeters>
      <DistanceMeters>394</DistanceMeters>
      <HeartRateBpm>
       <Value>145</Value>
      </HeartRateBpm>
      <Cadence>85</Cadence>
      <Extensions>
       <Speed>10.300000</Speed>
      </Extensions>
     </Trackpoint>
     <Trackpoint>
      <Time>2026-06-10T10:11:11Z</Time>
      <Position>
       <LatitudeDegrees>35.7025016</LatitudeDegrees>
       <LongitudeDegrees>139.7841362</LongitudeDegrees>
      </Position>
      <AltitudeMeters>16</AltitudeMeters>
      <DistanceMeters>397</DistanceMeters>
      <HeartRateBpm>
       <Value>145</Value>
      </HeartRateBpm>
      <Cadence>85</Cadence>
      <Extensions>
       <Speed>10.290000</Speed>
      </Extensions>
     </Trackpoint>
     <Trackpoint>
      <Time>2026-06-10T10:11:12Z</Time>
      <Position>
       <LatitudeDegrees>35.7025254</LatitudeDegrees>
       <LongitudeDegrees>139.7841456</LongitudeDegrees>
      </Position>
      <AltitudeMeters>16</AltitudeMeters>
      <DistanceMeters>400</DistanceMeters>
      <HeartRateBpm>
       <Value>145</Value>
      </HeartRateBpm>
      <Cadence>85</Cadence>
      <Extensions>
       <Speed>10.280000</Speed>
      </Extensions>
     </Trackpoint>
     <Trackpoint>
      <Time>2026-06-10T10:11:13Z</Time>
      <Position>
       <LatitudeDegrees>35.7025490</LatitudeDegrees>
       <LongitudeDegrees>139.7841520</LongitudeDegrees>
      </Position>
      <AltitudeMeters>16</AltitudeMeters>
      <DistanceMeters>403</DistanceMeters>
      <HeartRateBpm>
       <Value>145</Value>
      </HeartRateBpm>
      <Cadence>85</Cadence>
      <Extensions>
       <Speed>10.280000</Speed>
      </Extensions>
     </Trackpoint>
     <Trackpoint>
      <Time>2026-06-10T10:11:14Z</Time>
      <Position>
       <LatitudeDegrees>35.7025726</LatitudeDegrees>
       <LongitudeDegrees>139.7841584</LongitudeDegrees>
      </Position>
      <AltitudeMeters>16</AltitudeMeters>
      <DistanceMeters>406</DistanceMeters>
      <HeartRateBpm>
       <Value>145</Value>
      </HeartRateBpm>
      <Cadence>85</Cadence>
      <Extensions>
       <Speed>10.210000</Speed>
      </Extensions>
     </Trackpoint>
     <Trackpoint>
      <Time>2026-06-10T10:11:15Z</Time>
      <Position>
       <LatitudeDegrees>35.7025966</LatitudeDegrees>
       <LongitudeDegrees>139.7841632</LongitudeDegrees>
      </Position>
      <AltitudeMeters>16</AltitudeMeters>
      <DistanceMeters>408</DistanceMeters>
      <HeartRateBpm>
       <Value>145</Value>
      </HeartRateBpm>
      <Cadence>85</Cadence>
      <Extensions>
       <Speed>10.150000</Speed>
      </Extensions>
     </Trackpoint>
     <Trackpoint>
      <Time>2026-06-10T10:11:16Z</Time>
      <Position>
       <LatitudeDegrees>35.7026207</LatitudeDegrees>
       <LongitudeDegrees>139.7841680</LongitudeDegrees>
      </Position>
      <AltitudeMeters>16</AltitudeMeters>
      <DistanceMeters>411</DistanceMeters>
      <HeartRateBpm>
       <Value>145</Value>
      </HeartRateBpm>
      <Cadence>85</Cadence>
      <Extensions>
       <Speed>10.110000</Speed>
      </Extensions>
     </Trackpoint>
     <Trackpoint>
      <Time>2026-06-10T10:11:17Z</Time>
      <Position>
       <LatitudeDegrees>35.7026455</LatitudeDegrees>
       <LongitudeDegrees>139.7841731</LongitudeDegrees>
      </Position>
      <AltitudeMeters>16</AltitudeMeters>
      <DistanceMeters>414</DistanceMeters>
      <HeartRateBpm>
       <Value>145</Value>
      </HeartRateBpm>
      <Cadence>85</Cadence>
      <Extensions>
       <Speed>10.080000</Speed>
      </Extensions>
     </Trackpoint>
     <Trackpoint>
      <Time>2026-06-10T10:11:18Z</Time>
      <Position>
       <LatitudeDegrees>35.7026704</LatitudeDegrees>
       <LongitudeDegrees>139.7841782</LongitudeDegrees>
      </Position>
      <AltitudeMeters>16</AltitudeMeters>
      <DistanceMeters>416</DistanceMeters>
      <HeartRateBpm>
       <Value>145</Value>
      </HeartRateBpm>
      <Cadence>85</Cadence>
      <Extensions>
       <Speed>10.030000</Speed>
      </Extensions>
     </Trackpoint>
     <Trackpoint>
      <Time>2026-06-10T10:11:19Z</Time>
      <Position>
       <LatitudeDegrees>35.7026946</LatitudeDegrees>
       <LongitudeDegrees>139.7841844</LongitudeDegrees>
      </Position>
      <AltitudeMeters>16</AltitudeMeters>
      <DistanceMeters>419</DistanceMeters>
      <HeartRateBpm>
       <Value>144</Value>
      </HeartRateBpm>
      <Cadence>85</Cadence>
      <Extensions>
       <Speed>9.980000</Speed>
      </Extensions>
     </Trackpoint>
     <Trackpoint>
      <Time>2026-06-10T10:11:20Z</Time>
      <Position>
       <LatitudeDegrees>35.7027189</LatitudeDegrees>
       <LongitudeDegrees>139.7841906</LongitudeDegrees>
      </Position>
      <AltitudeMeters>16</AltitudeMeters>
      <DistanceMeters>422</DistanceMeters>
      <HeartRateBpm>
       <Value>144</Value>
      </HeartRateBpm>
      <Cadence>85</Cadence>
      <Extensions>
       <Speed>9.960000</Speed>
      </Extensions>
     </Trackpoint>
     <Trackpoint>
      <Time>2026-06-10T10:11:21Z</Time>
      <Position>
       <LatitudeDegrees>35.7027416</LatitudeDegrees>
       <LongitudeDegrees>139.7841967</LongitudeDegrees>
      </Position>
      <AltitudeMeters>16</AltitudeMeters>
      <DistanceMeters>424</DistanceMeters>
      <HeartRateBpm>
       <Value>144</Value>
      </HeartRateBpm>
      <Cadence>85</Cadence>
      <Extensions>
       <Speed>9.940000</Speed>
      </Extensions>
     </Trackpoint>
     <Trackpoint>
      <Time>2026-06-10T10:11:22Z</Time>
      <Position>
       <LatitudeDegrees>35.7027643</LatitudeDegrees>
       <LongitudeDegrees>139.7842028</LongitudeDegrees>
      </Position>
      <AltitudeMeters>16</AltitudeMeters>
      <DistanceMeters>426</DistanceMeters>
      <HeartRateBpm>
       <Value>145</Value>
      </HeartRateBpm>
      <Cadence>85</Cadence>
      <Extensions>
       <Speed>9.930000</Speed>
      </Extensions>
     </Trackpoint>
     <Trackpoint>
      <Time>2026-06-10T10:11:23Z</Time>
      <Position>
       <LatitudeDegrees>35.7027871</LatitudeDegrees>
       <LongitudeDegrees>139.7842084</LongitudeDegrees>
      </Position>
      <AltitudeMeters>16</AltitudeMeters>
      <DistanceMeters>429</DistanceMeters>
      <HeartRateBpm>
       <Value>145</Value>
      </HeartRateBpm>
      <Cadence>85</Cadence>
      <Extensions>
       <Speed>9.930000</Speed>
      </Extensions>
     </Trackpoint>
     <Trackpoint>
      <Time>2026-06-10T10:11:24Z</Time>
      <Position>
       <LatitudeDegrees>35.7028100</LatitudeDegrees>
       <LongitudeDegrees>139.7842140</LongitudeDegrees>
      </Position>
      <AltitudeMeters>16</AltitudeMeters>
      <DistanceMeters>432</DistanceMeters>
      <HeartRateBpm>
       <Value>145</Value>
      </HeartRateBpm>
      <Cadence>84</Cadence>
      <Extensions>
       <Speed>9.910000</Speed>
      </Extensions>
     </Trackpoint>
     <Trackpoint>
      <Time>2026-06-10T10:11:25Z</Time>
      <Position>
       <LatitudeDegrees>35.7028339</LatitudeDegrees>
       <LongitudeDegrees>139.7842177</LongitudeDegrees>
      </Position>
      <AltitudeMeters>16</AltitudeMeters>
      <DistanceMeters>435</DistanceMeters>
      <HeartRateBpm>
       <Value>145</Value>
      </HeartRateBpm>
      <Cadence>84</Cadence>
      <Extensions>
       <Speed>9.890000</Speed>
      </Extensions>
     </Trackpoint>
     <Trackpoint>
      <Time>2026-06-10T10:11:26Z</Time>
      <Position>
       <LatitudeDegrees>35.7028578</LatitudeDegrees>
       <LongitudeDegrees>139.7842215</LongitudeDegrees>
      </Position>
      <AltitudeMeters>15</AltitudeMeters>
      <DistanceMeters>438</DistanceMeters>
      <HeartRateBpm>
       <Value>145</Value>
      </HeartRateBpm>
      <Cadence>84</Cadence>
      <Extensions>
       <Speed>9.880000</Speed>
      </Extensions>
     </Trackpoint>
     <Trackpoint>
      <Time>2026-06-10T10:11:27Z</Time>
      <Position>
       <LatitudeDegrees>35.7028851</LatitudeDegrees>
       <LongitudeDegrees>139.7842231</LongitudeDegrees>
      </Position>
      <AltitudeMeters>15</AltitudeMeters>
      <DistanceMeters>442</DistanceMeters>
      <HeartRateBpm>
       <Value>145</Value>
      </HeartRateBpm>
      <Cadence>84</Cadence>
      <Extensions>
       <Speed>9.870000</Speed>
      </Extensions>
     </Trackpoint>
     <Trackpoint>
      <Time>2026-06-10T10:11:28Z</Time>
      <Position>
       <LatitudeDegrees>35.7029124</LatitudeDegrees>
       <LongitudeDegrees>139.7842247</LongitudeDegrees>
      </Position>
      <AltitudeMeters>15</AltitudeMeters>
      <DistanceMeters>445</DistanceMeters>
      <HeartRateBpm>
       <Value>145</Value>
      </HeartRateBpm>
      <Cadence>84</Cadence>
      <Extensions>
       <Speed>9.870000</Speed>
      </Extensions>
     </Trackpoint>
     <Trackpoint>
      <Time>2026-06-10T10:11:29Z</Time>
      <Position>
       <LatitudeDegrees>35.7029406</LatitudeDegrees>
       <LongitudeDegrees>139.7842271</LongitudeDegrees>
      </Position>
      <AltitudeMeters>15</AltitudeMeters>
      <DistanceMeters>448</DistanceMeters>
      <HeartRateBpm>
       <Value>145</Value>
      </HeartRateBpm>
      <Cadence>84</Cadence>
      <Extensions>
       <Speed>9.870000</Speed>
      </Extensions>
     </Trackpoint>
     <Trackpoint>
      <Time>2026-06-10T10:11:30Z</Time>
      <Position>
       <LatitudeDegrees>35.7029689</LatitudeDegrees>
       <LongitudeDegrees>139.7842296</LongitudeDegrees>
      </Position>
      <AltitudeMeters>15</AltitudeMeters>
      <DistanceMeters>451</DistanceMeters>
      <HeartRateBpm>
       <Value>146</Value>
      </HeartRateBpm>
      <Cadence>85</Cadence>
      <Extensions>
       <Speed>9.880000</Speed>
      </Extensions>
     </Trackpoint>
     <Trackpoint>
      <Time>2026-06-10T10:11:31Z</Time>
      <Position>
       <LatitudeDegrees>35.7029968</LatitudeDegrees>
       <LongitudeDegrees>139.7842343</LongitudeDegrees>
      </Position>
      <AltitudeMeters>15</AltitudeMeters>
      <DistanceMeters>454</DistanceMeters>
      <HeartRateBpm>
       <Value>147</Value>
      </HeartRateBpm>
      <Cadence>86</Cadence>
      <Extensions>
       <Speed>9.900000</Speed>
      </Extensions>
     </Trackpoint>
     <Trackpoint>
      <Time>2026-06-10T10:11:32Z</Time>
      <Position>
       <LatitudeDegrees>35.7030247</LatitudeDegrees>
       <LongitudeDegrees>139.7842391</LongitudeDegrees>
      </Position>
      <AltitudeMeters>15</AltitudeMeters>
      <DistanceMeters>456</DistanceMeters>
      <HeartRateBpm>
       <Value>147</Value>
      </HeartRateBpm>
      <Cadence>86</Cadence>
      <Extensions>
       <Speed>9.930000</Speed>
      </Extensions>
     </Trackpoint>
     <Trackpoint>
      <Time>2026-06-10T10:11:33Z</Time>
      <Position>
       <LatitudeDegrees>35.7030503</LatitudeDegrees>
       <LongitudeDegrees>139.7842456</LongitudeDegrees>
      </Position>
      <AltitudeMeters>15</AltitudeMeters>
      <DistanceMeters>459</DistanceMeters>
      <HeartRateBpm>
       <Value>148</Value>
      </HeartRateBpm>
      <Cadence>87</Cadence>
      <Extensions>
       <Speed>9.960000</Speed>
      </Extensions>
     </Trackpoint>
     <Trackpoint>
      <Time>2026-06-10T10:11:34Z</Time>
      <Position>
       <LatitudeDegrees>35.7030759</LatitudeDegrees>
       <LongitudeDegrees>139.7842522</LongitudeDegrees>
      </Position>
      <AltitudeMeters>15</AltitudeMeters>
      <DistanceMeters>462</DistanceMeters>
      <HeartRateBpm>
       <Value>148</Value>
      </HeartRateBpm>
      <Cadence>87</Cadence>
      <Extensions>
       <Speed>9.980000</Speed>
      </Extensions>
     </Trackpoint>
     <Trackpoint>
      <Time>2026-06-10T10:11:35Z</Time>
      <Position>
       <LatitudeDegrees>35.7031007</LatitudeDegrees>
       <LongitudeDegrees>139.7842605</LongitudeDegrees>
      </Position>
      <AltitudeMeters>15</AltitudeMeters>
      <DistanceMeters>465</DistanceMeters>
      <HeartRateBpm>
       <Value>148</Value>
      </HeartRateBpm>
      <Cadence>87</Cadence>
      <Extensions>
       <Speed>10.000000</Speed>
      </Extensions>
     </Trackpoint>
     <Trackpoint>
      <Time>2026-06-10T10:11:36Z</Time>
      <Position>
       <LatitudeDegrees>35.7031256</LatitudeDegrees>
       <LongitudeDegrees>139.7842688</LongitudeDegrees>
      </Position>
      <AltitudeMeters>15</AltitudeMeters>
      <DistanceMeters>468</DistanceMeters>
      <HeartRateBpm>
       <Value>148</Value>
      </HeartRateBpm>
      <Cadence>87</Cadence>
      <Extensions>
       <Speed>10.010000</Speed>
      </Extensions>
     </Trackpoint>
     <Trackpoint>
      <Time>2026-06-10T10:11:37Z</Time>
      <Position>
       <LatitudeDegrees>35.7031502</LatitudeDegrees>
       <LongitudeDegrees>139.7842824</LongitudeDegrees>
      </Position>
      <AltitudeMeters>15</AltitudeMeters>
      <DistanceMeters>471</DistanceMeters>
      <HeartRateBpm>
       <Value>148</Value>
      </HeartRateBpm>
      <Cadence>86</Cadence>
      <Extensions>
       <Speed>10.020000</Speed>
      </Extensions>
     </Trackpoint>
     <Trackpoint>
      <Time>2026-06-10T10:11:38Z</Time>
      <Position>
       <LatitudeDegrees>35.7031748</LatitudeDegrees>
       <LongitudeDegrees>139.7842961</LongitudeDegrees>
      </Position>
      <AltitudeMeters>15</AltitudeMeters>
      <DistanceMeters>475</DistanceMeters>
      <HeartRateBpm>
       <Value>148</Value>
      </HeartRateBpm>
      <Cadence>86</Cadence>
      <Extensions>
       <Speed>10.030000</Speed>
      </Extensions>
     </Trackpoint>
     <Trackpoint>
      <Time>2026-06-10T10:11:39Z</Time>
      <Position>
       <LatitudeDegrees>35.7032008</LatitudeDegrees>
       <LongitudeDegrees>139.7843171</LongitudeDegrees>
      </Position>
      <AltitudeMeters>15</AltitudeMeters>
      <DistanceMeters>479</DistanceMeters>
      <HeartRateBpm>
       <Value>148</Value>
      </HeartRateBpm>
      <Cadence>86</Cadence>
      <Extensions>
       <Speed>10.040000</Speed>
      </Extensions>
     </Trackpoint>
     <Trackpoint>
      <Time>2026-06-10T10:11:40Z</Time>
      <Position>
       <LatitudeDegrees>35.7032269</LatitudeDegrees>
       <LongitudeDegrees>139.7843381</LongitudeDegrees>
      </Position>
      <AltitudeMeters>15</AltitudeMeters>
      <DistanceMeters>482</DistanceMeters>
      <HeartRateBpm>
       <Value>148</Value>
      </HeartRateBpm>
      <Cadence>86</Cadence>
      <Extensions>
       <Speed>10.060000</Speed>
      </Extensions>
     </Trackpoint>
     <Trackpoint>
      <Time>2026-06-10T10:11:41Z</Time>
      <Position>
       <LatitudeDegrees>35.7032523</LatitudeDegrees>
       <LongitudeDegrees>139.7843585</LongitudeDegrees>
      </Position>
      <AltitudeMeters>15</AltitudeMeters>
      <DistanceMeters>486</DistanceMeters>
      <HeartRateBpm>
       <Value>147</Value>
      </HeartRateBpm>
      <Cadence>86</Cadence>
      <Extensions>
       <Speed>10.090000</Speed>
      </Extensions>
     </Trackpoint>
     <Trackpoint>
      <Time>2026-06-10T10:11:42Z</Time>
      <Position>
       <LatitudeDegrees>35.7032777</LatitudeDegrees>
       <LongitudeDegrees>139.7843789</LongitudeDegrees>
      </Position>
      <AltitudeMeters>15</AltitudeMeters>
      <DistanceMeters>488</DistanceMeters>
      <HeartRateBpm>
       <Value>147</Value>
      </HeartRateBpm>
      <Cadence>85</Cadence>
      <Extensions>
       <Speed>10.110000</Speed>
      </Extensions>
     </Trackpoint>
     <Trackpoint>
      <Time>2026-06-10T10:11:43Z</Time>
      <Position>
       <LatitudeDegrees>35.7033019</LatitudeDegrees>
       <LongitudeDegrees>139.7843912</LongitudeDegrees>
      </Position>
      <AltitudeMeters>15</AltitudeMeters>
      <DistanceMeters>491</DistanceMeters>
      <HeartRateBpm>
       <Value>147</Value>
      </HeartRateBpm>
      <Cadence>85</Cadence>
      <Extensions>
       <Speed>10.140000</Speed>
      </Extensions>
     </Trackpoint>
     <Trackpoint>
      <Time>2026-06-10T10:11:44Z</Time>
      <Position>
       <LatitudeDegrees>35.7033261</LatitudeDegrees>
       <LongitudeDegrees>139.7844036</LongitudeDegrees>
      </Position>
      <AltitudeMeters>15</AltitudeMeters>
      <DistanceMeters>493</DistanceMeters>
      <HeartRateBpm>
       <Value>147</Value>
      </HeartRateBpm>
      <Cadence>85</Cadence>
      <Extensions>
       <Speed>10.160000</Speed>
      </Extensions>
     </Trackpoint>
     <Trackpoint>
      <Time>2026-06-10T10:11:45Z</Time>
      <AltitudeMeters>16</AltitudeMeters>
      <DistanceMeters>495</DistanceMeters>
      <HeartRateBpm>
       <Value>147</Value>
      </HeartRateBpm>
      <Cadence>85</Cadence>
      <Extensions>
       <Speed>10.180000</Speed>
      </Extensions>
     </Trackpoint>
    </Track>
   </Lap>
   <Creator>
    <Name>COROS Wearables</Name>
   </Creator>
  </Activity>
 </Activities>
</TrainingCenterDatabase>
